{"State":{"Andhra Pradesh":[{"pincode":"504273","divisionname":"Adilabad","regionname":"Hyderabad","circlename":"Andhra Pradesh","taluk":"Asifabad","districtname":"Adilabad","statename":"TELANGANA","longitude":"NA","latitude":"NA"},{"pincode":"504293","divisionname":"Adilabad","regionname":"Hyderabad","circlename":"Andhra Pradesh","taluk":"Asifabad","districtname":"Adilabad","statename":"TELANGANA","longitude":"NA","latitude":"NA"},{"pincode":"504307","divisionname":"Adilabad","regionname":"Hyderabad","circlename":"Andhra Pradesh","taluk":"Boath","districtname":"Adilabad","statename":"TELANGANA","longitude":"NA","latitude":"NA"},{"pincode":"504001","divisionname":"Adilabad","regionname":"Hyderabad","circlename":"Andhra Pradesh","taluk":"Adilabad","districtname":"Adilabad","statename":"TELANGANA","longitude":"NA","latitude":"NA"},{"pincode":"504001","divisionname":"Adilabad","regionname":"Hyderabad","circlename":"Andhra Pradesh","taluk":"Adilabad","districtname":"Adilabad","statename":"TELANGANA","longitude":"NA","latitude":"NA"},{"pincode":"504251","divisionname":"Adilabad","regionname":"Hyderabad","circlename":"Andhra Pradesh","taluk":"Bellampalle","districtname":"Adilabad","statename":"TELANGANA","longitude":"NA","latitude":"NA"},{"pincode":"504273","divisionname":"Adilabad","regionname":"Hyderabad","circlename":"Andhra Pradesh","taluk":"Asifabad","districtname":"Adilabad","statename":"TELANGANA","longitude":"NA","latitude":"NA"},{"pincode":"504251","divisionname":"Adilabad","regionname":"Hyderabad","circlename":"Andhra Pradesh","taluk":"Luxettipet","districtname":"Adilabad","statename":"TELANGANA","longitude":"NA","latitude":"NA"},{"pincode":"504309","divisionname":"Adilabad","regionname":"Hyderabad","circlename":"Andhra Pradesh","taluk":"Adilabad","districtname":"Adilabad","statename":"TELANGANA","longitude":"NA","latitude":"NA"},{"pincode":"504201","divisionname":"Adilabad","regionname":"Hyderabad","circlename":"Andhra Pradesh","taluk":"Chennur","districtname":"Adilabad","statename":"TELANGANA","longitude":"NA","latitude":"NA"},{"pincode":"504110","divisionname":"Adilabad","regionname":"Hyderabad","circlename":"Andhra Pradesh","taluk":"Nirmal","districtname":"Adilabad","statename":"TELANGANA","longitude":"NA","latitude":"NA"},{"pincode":"504202","divisionname":"Adilabad","regionname":"Hyderabad","circlename":"Andhra Pradesh","taluk":"Khanapur","districtname":"Adilabad","statename":"TELANGANA","longitude":"NA","latitude":"NA"},{"pincode":"504296","divisionname":"Adilabad","regionname":"Hyderabad","circlename":"Andhra Pradesh","taluk":"Sirpur (t)","districtname":"Adilabad","statename":"TELANGANA","longitude":"NA","latitude":"NA"},{"pincode":"504231","divisionname":"Adilabad","regionname":"Hyderabad","circlename":"Andhra Pradesh","taluk":"Luxettipet","districtname":"Adilabad","statename":"TELANGANA","longitude":"NA","latitude":"NA"},{"pincode":"504109","divisionname":"Adilabad","regionname":"Hyderabad","circlename":"Andhra Pradesh","taluk":"Nirmal","districtname":"Adilabad","statename":"TELANGANA","longitude":"NA","latitude":"NA"},{"pincode":"504201","divisionname":"Adilabad","regionname":"Hyderabad","circlename":"Andhra Pradesh","taluk":"Chennur","districtname":"Adilabad","statename":"TELANGANA","longitude":"NA","latitude":"NA"},{"pincode":"504299","divisionname":"Adilabad","regionname":"Hyderabad","circlename":"Andhra Pradesh","taluk":"Kagaznagar","districtname":"Adilabad","statename":"TELANGANA","longitude":"NA","latitude":"NA"},{"pincode":"504002","divisionname":"Adilabad","regionname":"Hyderabad","circlename":"Andhra Pradesh","taluk":"Adilabad","districtname":"Adilabad","statename":"TELANGANA","longitude":"NA","latitude":"NA"},{"pincode":"504201","divisionname":"Adilabad","regionname":"Hyderabad","circlename":"Andhra Pradesh","taluk":"Chennur","districtname":"Adilabad","statename":"TELANGANA","longitude":"NA","latitude":"NA"},{"pincode":"504204","divisionname":"Adilabad","regionname":"Hyderabad","circlename":"Andhra Pradesh","taluk":"Chennur","districtname":"Adilabad","statename":"TELANGANA","longitude":"NA","latitude":"NA"},{"pincode":"504001","divisionname":"Adilabad","regionname":"Hyderabad","circlename":"Andhra Pradesh","taluk":"Adilabad","districtname":"Adilabad","statename":"TELANGANA","longitude":"NA","latitude":"NA"},{"pincode":"504202","divisionname":"Adilabad","regionname":"Hyderabad","circlename":"Andhra Pradesh","taluk":"Khanapur","districtname":"Adilabad","statename":"TELANGANA","longitude":"NA","latitude":"NA"},{"pincode":"504309","divisionname":"Adilabad","regionname":"Hyderabad","circlename":"Andhra Pradesh","taluk":"Adilabad","districtname":"Adilabad","statename":"TELANGANA","longitude":"NA","latitude":"NA"},{"pincode":"504304","divisionname":"Adilabad","regionname":"Hyderabad","circlename":"Andhra Pradesh","taluk":"Boath","districtname":"Adilabad","statename":"TELANGANA","longitude":"NA","latitude":"NA"},{"pincode":"504273","divisionname":"Adilabad","regionname":"Hyderabad","circlename":"Andhra Pradesh","taluk":"Asifabad","districtname":"Adilabad","statename":"TELANGANA","longitude":"NA","latitude":"NA"},{"pincode":"504102","divisionname":"Adilabad","regionname":"Hyderabad","circlename":"Andhra Pradesh","taluk":"Mudhole","districtname":"Adilabad","statename":"TELANGANA","longitude":"NA","latitude":"NA"},{"pincode":"504294","divisionname":"Adilabad","regionname":"Hyderabad","circlename":"Andhra Pradesh","taluk":"Asifabad","districtname":"Adilabad","statename":"TELANGANA","longitude":"NA","latitude":"NA"},{"pincode":"504293","divisionname":"Adilabad","regionname":"Hyderabad","circlename":"Andhra Pradesh","taluk":"Asifabad","districtname":"Adilabad","statename":"TELANGANA","longitude":"NA","latitude":"NA"},{"pincode":"504308","divisionname":"Adilabad","regionname":"Hyderabad","circlename":"Andhra Pradesh","taluk":"Adilabad","districtname":"Adilabad","statename":"TELANGANA","longitude":"NA","latitude":"NA"},{"pincode":"504218","divisionname":"Adilabad","regionname":"Hyderabad","circlename":"Andhra Pradesh","taluk":"Luxettipet","districtname":"Adilabad","statename":"TELANGANA","longitude":"NA","latitude":"NA"},{"pincode":"504201","divisionname":"Adilabad","regionname":"Hyderabad","circlename":"Andhra Pradesh","taluk":"Chennur","districtname":"Adilabad","statename":"TELANGANA","longitude":"NA","latitude":"NA"},{"pincode":"504311","divisionname":"Adilabad","regionname":"Hyderabad","circlename":"Andhra Pradesh","taluk":"Utnoor","districtname":"Adilabad","statename":"TELANGANA","longitude":"NA","latitude":"NA"},{"pincode":"504313","divisionname":"Adilabad","regionname":"Hyderabad","circlename":"Andhra Pradesh","taluk":"Utnoor","districtname":"Adilabad","statename":"TELANGANA","longitude":"NA","latitude":"NA"},{"pincode":"504110","divisionname":"Adilabad","regionname":"Hyderabad","circlename":"Andhra Pradesh","taluk":"Nirmal","districtname":"Adilabad","statename":"TELANGANA","longitude":"NA","latitude":"NA"},{"pincode":"504304","divisionname":"Adilabad","regionname":"Hyderabad","circlename":"Andhra Pradesh","taluk":"Boath","districtname":"Adilabad","statename":"TELANGANA","longitude":"NA","latitude":"NA"},{"pincode":"504346","divisionname":"Adilabad","regionname":"Hyderabad","circlename":"Andhra Pradesh","taluk":"Utnoor","districtname":"Adilabad","statename":"TELANGANA","longitude":"NA","latitude":"NA"},{"pincode":"504205","divisionname":"Adilabad","regionname":"Hyderabad","circlename":"Andhra Pradesh","taluk":"Luxettipet","districtname":"Adilabad","statename":"TELANGANA","longitude":"NA","latitude":"NA"},{"pincode":"504231","divisionname":"Adilabad","regionname":"Hyderabad","circlename":"Andhra Pradesh","taluk":"Luxettipet","districtname":"Adilabad","statename":"TELANGANA","longitude":"NA","latitude":"NA"},{"pincode":"504299","divisionname":"Adilabad","regionname":"Hyderabad","circlename":"Andhra Pradesh","taluk":"Sirpur (t)","districtname":"Adilabad","statename":"TELANGANA","longitude":"NA","latitude":"NA"},{"pincode":"504203","divisionname":"Adilabad","regionname":"Hyderabad","circlename":"Andhra Pradesh","taluk":"NA","districtname":"Adilabad","statename":"TELANGANA","longitude":"NA","latitude":"NA"},{"pincode":"504306","divisionname":"Adilabad","regionname":"Hyderabad","circlename":"Andhra Pradesh","taluk":"Nirmal","districtname":"Adilabad","statename":"TELANGANA","longitude":"NA","latitude":"NA"},{"pincode":"504299","divisionname":"Adilabad","regionname":"Hyderabad","circlename":"Andhra Pradesh","taluk":"Sirpur (t)","districtname":"Adilabad","statename":"TELANGANA","longitude":"NA","latitude":"NA"},{"pincode":"504310","divisionname":"Adilabad","regionname":"Hyderabad","circlename":"Andhra Pradesh","taluk":"Nirmal","districtname":"Adilabad","statename":"TELANGANA","longitude":"NA","latitude":"NA"},{"pincode":"504103","divisionname":"Adilabad","regionname":"Hyderabad","circlename":"Andhra Pradesh","taluk":"Mudhole","districtname":"Adilabad","statename":"TELANGANA","longitude":"NA","latitude":"NA"},{"pincode":"504207","divisionname":"Adilabad","regionname":"Hyderabad","circlename":"Andhra Pradesh","taluk":"Luxettipet","districtname":"Adilabad","statename":"TELANGANA","longitude":"NA","latitude":"NA"},{"pincode":"504215","divisionname":"Adilabad","regionname":"Hyderabad","circlename":"Andhra Pradesh","taluk":"Luxettipet","districtname":"Adilabad","statename":"TELANGANA","longitude":"NA","latitude":"NA"},{"pincode":"504201","divisionname":"Adilabad","regionname":"Hyderabad","circlename":"Andhra Pradesh","taluk":"Chennur","districtname":"Adilabad","statename":"TELANGANA","longitude":"NA","latitude":"NA"},{"pincode":"504206","divisionname":"Adilabad","regionname":"Hyderabad","circlename":"Andhra Pradesh","taluk":"Luxettipet","districtname":"Adilabad","statename":"TELANGANA","longitude":"NA","latitude":"NA"},{"pincode":"504272","divisionname":"Adilabad","regionname":"Hyderabad","circlename":"Andhra Pradesh","taluk":"Asifabad","districtname":"Adilabad","statename":"TELANGANA","longitude":"NA","latitude":"NA"},{"pincode":"504296","divisionname":"Adilabad","regionname":"Hyderabad","circlename":"Andhra Pradesh","taluk":"Kagaznagar","districtname":"Adilabad","statename":"TELANGANA","longitude":"NA","latitude":"NA"},{"pincode":"504296","divisionname":"Adilabad","regionname":"Hyderabad","circlename":"Andhra Pradesh","taluk":"Sirpur (t)","districtname":"Adilabad","statename":"TELANGANA","longitude":"NA","latitude":"NA"},{"pincode":"504307","divisionname":"Adilabad","regionname":"Hyderabad","circlename":"Andhra Pradesh","taluk":"Boath","districtname":"Adilabad","statename":"TELANGANA","longitude":"NA","latitude":"NA"},{"pincode":"504102","divisionname":"Adilabad","regionname":"Hyderabad","circlename":"Andhra Pradesh","taluk":"Mudhole","districtname":"Adilabad","statename":"TELANGANA","longitude":"NA","latitude":"NA"},{"pincode":"504102","divisionname":"Adilabad","regionname":"Hyderabad","circlename":"Andhra Pradesh","taluk":"Mudhole","districtname":"Adilabad","statename":"TELANGANA","longitude":"NA","latitude":"NA"},{"pincode":"504209","divisionname":"Adilabad","regionname":"Hyderabad","circlename":"Andhra Pradesh","taluk":"Luxettipet","districtname":"Adilabad","statename":"TELANGANA","longitude":"NA","latitude":"NA"},{"pincode":"504104","divisionname":"Adilabad","regionname":"Hyderabad","circlename":"Andhra Pradesh","taluk":"Nirmal","districtname":"Adilabad","statename":"TELANGANA","longitude":"NA","latitude":"NA"},{"pincode":"504311","divisionname":"Adilabad","regionname":"Hyderabad","circlename":"Andhra Pradesh","taluk":"Utnoor","districtname":"Adilabad","statename":"TELANGANA","longitude":"NA","latitude":"NA"},{"pincode":"504001","divisionname":"Adilabad","regionname":"Hyderabad","circlename":"Andhra Pradesh","taluk":"Adilabad","districtname":"Adilabad","statename":"TELANGANA","longitude":"NA","latitude":"NA"},{"pincode":"504292","divisionname":"Adilabad","regionname":"Hyderabad","circlename":"Andhra Pradesh","taluk":"Asifabad","districtname":"Adilabad","statename":"TELANGANA","longitude":"NA","latitude":"NA"},{"pincode":"504304","divisionname":"Adilabad","regionname":"Hyderabad","circlename":"Andhra Pradesh","taluk":"Boath","districtname":"Adilabad","statename":"TELANGANA","longitude":"NA","latitude":"NA"},{"pincode":"504311","divisionname":"Adilabad","regionname":"Hyderabad","circlename":"Andhra Pradesh","taluk":"Utnoor","districtname":"Adilabad","statename":"TELANGANA","longitude":"NA","latitude":"NA"},{"pincode":"504309","divisionname":"Adilabad","regionname":"Hyderabad","circlename":"Andhra Pradesh","taluk":"Adilabad","districtname":"Adilabad","statename":"TELANGANA","longitude":"NA","latitude":"NA"},{"pincode":"504297","divisionname":"Adilabad","regionname":"Hyderabad","circlename":"Andhra Pradesh","taluk":"Asifabad","districtname":"Adilabad","statename":"TELANGANA","longitude":"NA","latitude":"NA"},{"pincode":"504346","divisionname":"Adilabad","regionname":"Hyderabad","circlename":"Andhra Pradesh","taluk":"Utnoor","districtname":"Adilabad","statename":"TELANGANA","longitude":"NA","latitude":"NA"},{"pincode":"504307","divisionname":"Adilabad","regionname":"Hyderabad","circlename":"Andhra Pradesh","taluk":"Boath","districtname":"Adilabad","statename":"TELANGANA","longitude":"NA","latitude":"NA"},{"pincode":"504307","divisionname":"Adilabad","regionname":"Hyderabad","circlename":"Andhra Pradesh","taluk":"Boath","districtname":"Adilabad","statename":"TELANGANA","longitude":"NA","latitude":"NA"},{"pincode":"504219","divisionname":"Adilabad","regionname":"Hyderabad","circlename":"Andhra Pradesh","taluk":"Luxettipet","districtname":"Adilabad","statename":"TELANGANA","longitude":"NA","latitude":"NA"},{"pincode":"504304","divisionname":"Adilabad","regionname":"Hyderabad","circlename":"Andhra Pradesh","taluk":"Boath","districtname":"Adilabad","statename":"TELANGANA","longitude":"NA","latitude":"NA"},{"pincode":"504207","divisionname":"Adilabad","regionname":"Hyderabad","circlename":"Andhra Pradesh","taluk":"Luxettipet","districtname":"Adilabad","statename":"TELANGANA","longitude":"NA","latitude":"NA"},{"pincode":"504292","divisionname":"Adilabad","regionname":"Hyderabad","circlename":"Andhra Pradesh","taluk":"Asifabad","districtname":"Adilabad","statename":"TELANGANA","longitude":"NA","latitude":"NA"},{"pincode":"504312","divisionname":"Adilabad","regionname":"Hyderabad","circlename":"Andhra Pradesh","taluk":"Tamsi","districtname":"Adilabad","statename":"TELANGANA","longitude":"NA","latitude":"NA"},{"pincode":"504110","divisionname":"Adilabad","regionname":"Hyderabad","circlename":"Andhra Pradesh","taluk":"Nirmal","districtname":"Adilabad","statename":"TELANGANA","longitude":"NA","latitude":"NA"},{"pincode":"504346","divisionname":"Adilabad","regionname":"Hyderabad","circlename":"Andhra Pradesh","taluk":"Utnoor","districtname":"Adilabad","statename":"TELANGANA","longitude":"NA","latitude":"NA"},{"pincode":"504323","divisionname":"Adilabad","regionname":"Hyderabad","circlename":"Andhra Pradesh","taluk":"Neradigonda","districtname":"Adilabad","statename":"TELANGANA","longitude":"NA","latitude":"NA"},{"pincode":"504293","divisionname":"Adilabad","regionname":"Hyderabad","circlename":"Andhra Pradesh","taluk":"Asifabad","districtname":"Adilabad","statename":"TELANGANA","longitude":"NA","latitude":"NA"},{"pincode":"504208","divisionname":"Adilabad","regionname":"Hyderabad","circlename":"Andhra Pradesh","taluk":"Mancherial","districtname":"Adilabad","statename":"TELANGANA","longitude":"NA","latitude":"NA"},{"pincode":"504309","divisionname":"Adilabad","regionname":"Hyderabad","circlename":"Andhra Pradesh","taluk":"Adilabad","districtname":"Adilabad","statename":"TELANGANA","longitude":"NA","latitude":"NA"},{"pincode":"504311","divisionname":"Adilabad","regionname":"Hyderabad","circlename":"Andhra Pradesh","taluk":"Utnoor","districtname":"Adilabad","statename":"TELANGANA","longitude":"NA","latitude":"NA"},{"pincode":"504215","divisionname":"Adilabad","regionname":"Hyderabad","circlename":"Andhra Pradesh","taluk":"Luxettipet","districtname":"Adilabad","statename":"TELANGANA","longitude":"NA","latitude":"NA"},{"pincode":"504299","divisionname":"Adilabad","regionname":"Hyderabad","circlename":"Andhra Pradesh","taluk":"Sirpur (t)","districtname":"Adilabad","statename":"TELANGANA","longitude":"NA","latitude":"NA"},{"pincode":"504308","divisionname":"Adilabad","regionname":"Hyderabad","circlename":"Andhra Pradesh","taluk":"Boath","districtname":"Adilabad","statename":"TELANGANA","longitude":"NA","latitude":"NA"},{"pincode":"504273","divisionname":"Adilabad","regionname":"Hyderabad","circlename":"Andhra Pradesh","taluk":"Asifabad","districtname":"Adilabad","statename":"TELANGANA","longitude":"NA","latitude":"NA"},{"pincode":"504299","divisionname":"Adilabad","regionname":"Hyderabad","circlename":"Andhra Pradesh","taluk":"Sirpur (t)","districtname":"Adilabad","statename":"TELANGANA","longitude":"NA","latitude":"NA"},{"pincode":"504109","divisionname":"Adilabad","regionname":"Hyderabad","circlename":"Andhra Pradesh","taluk":"Nirmal","districtname":"Adilabad","statename":"TELANGANA","longitude":"NA","latitude":"NA"},{"pincode":"504309","divisionname":"Adilabad","regionname":"Hyderabad","circlename":"Andhra Pradesh","taluk":"Adilabad","districtname":"Adilabad","statename":"TELANGANA","longitude":"NA","latitude":"NA"},{"pincode":"504299","divisionname":"Adilabad","regionname":"Hyderabad","circlename":"Andhra Pradesh","taluk":"Sirpur (t)","districtname":"Adilabad","statename":"TELANGANA","longitude":"NA","latitude":"NA"},{"pincode":"504306","divisionname":"Adilabad","regionname":"Hyderabad","circlename":"Andhra Pradesh","taluk":"Nirmal","districtname":"Adilabad","statename":"TELANGANA","longitude":"NA","latitude":"NA"},{"pincode":"504293","divisionname":"Adilabad","regionname":"Hyderabad","circlename":"Andhra Pradesh","taluk":"Asifabad","districtname":"Adilabad","statename":"TELANGANA","longitude":"NA","latitude":"NA"},{"pincode":"504311","divisionname":"Adilabad","regionname":"Hyderabad","circlename":"Andhra Pradesh","taluk":"Utnoor","districtname":"Adilabad","statename":"TELANGANA","longitude":"NA","latitude":"NA"},{"pincode":"504251","divisionname":"Adilabad","regionname":"Hyderabad","circlename":"Andhra Pradesh","taluk":"Luxettipet","districtname":"Adilabad","statename":"TELANGANA","longitude":"NA","latitude":"NA"},{"pincode":"504308","divisionname":"Adilabad","regionname":"Hyderabad","circlename":"Andhra Pradesh","taluk":"Boath","districtname":"Adilabad","statename":"TELANGANA","longitude":"NA","latitude":"NA"},{"pincode":"504299","divisionname":"Adilabad","regionname":"Hyderabad","circlename":"Andhra Pradesh","taluk":"Sirpur (t)","districtname":"Adilabad","statename":"TELANGANA","longitude":"NA","latitude":"NA"},{"pincode":"504346","divisionname":"Adilabad","regionname":"Hyderabad","circlename":"Andhra Pradesh","taluk":"Utnoor","districtname":"Adilabad","statename":"TELANGANA","longitude":"NA","latitude":"NA"},{"pincode":"504296","divisionname":"Adilabad","regionname":"Hyderabad","circlename":"Andhra Pradesh","taluk":"Kagaznagar","districtname":"Adilabad","statename":"TELANGANA","longitude":"NA","latitude":"NA"},{"pincode":"504311","divisionname":"Adilabad","regionname":"Hyderabad","circlename":"Andhra Pradesh","taluk":"Utnoor","districtname":"Adilabad","statename":"TELANGANA","longitude":"NA","latitude":"NA"},{"pincode":"504273","divisionname":"Adilabad","regionname":"Hyderabad","circlename":"Andhra Pradesh","taluk":"Asifabad","districtname":"Adilabad","statename":"TELANGANA","longitude":"NA","latitude":"NA"},{"pincode":"504207","divisionname":"Adilabad","regionname":"Hyderabad","circlename":"Andhra Pradesh","taluk":"Luxettipet","districtname":"Adilabad","statename":"TELANGANA","longitude":"NA","latitude":"NA"},{"pincode":"504299","divisionname":"Adilabad","regionname":"Hyderabad","circlename":"Andhra Pradesh","taluk":"Sirpur (t)","districtname":"Adilabad","statename":"TELANGANA","longitude":"NA","latitude":"NA"},{"pincode":"504205","divisionname":"Adilabad","regionname":"Hyderabad","circlename":"Andhra Pradesh","taluk":"Luxettipet","districtname":"Adilabad","statename":"TELANGANA","longitude":"NA","latitude":"NA"},{"pincode":"504216","divisionname":"Adilabad","regionname":"Hyderabad","circlename":"Andhra Pradesh","taluk":"Chennur","districtname":"Adilabad","statename":"TELANGANA","longitude":"NA","latitude":"NA"},{"pincode":"504346","divisionname":"Adilabad","regionname":"Hyderabad","circlename":"Andhra Pradesh","taluk":"Utnoor","districtname":"Adilabad","statename":"TELANGANA","longitude":"NA","latitude":"NA"},{"pincode":"504295","divisionname":"Adilabad","regionname":"Hyderabad","circlename":"Andhra Pradesh","taluk":"Asifabad","districtname":"Adilabad","statename":"TELANGANA","longitude":"NA","latitude":"NA"},{"pincode":"504106","divisionname":"Adilabad","regionname":"Hyderabad","circlename":"Andhra Pradesh","taluk":"Nirmal","districtname":"Adilabad","statename":"TELANGANA","longitude":"NA","latitude":"NA"},{"pincode":"504296","divisionname":"Adilabad","regionname":"Hyderabad","circlename":"Andhra Pradesh","taluk":"Kagaznagar","districtname":"Adilabad","statename":"TELANGANA","longitude":"NA","latitude":"NA"},{"pincode":"504215","divisionname":"Adilabad","regionname":"Hyderabad","circlename":"Andhra Pradesh","taluk":"Luxettipet","districtname":"Adilabad","statename":"TELANGANA","longitude":"NA","latitude":"NA"},{"pincode":"504273","divisionname":"Adilabad","regionname":"Hyderabad","circlename":"Andhra Pradesh","taluk":"Asifabad","districtname":"Adilabad","statename":"TELANGANA","longitude":"NA","latitude":"NA"},{"pincode":"504309","divisionname":"Adilabad","regionname":"Hyderabad","circlename":"Andhra Pradesh","taluk":"Adilabad","districtname":"Adilabad","statename":"TELANGANA","longitude":"NA","latitude":"NA"},{"pincode":"504313","divisionname":"Adilabad","regionname":"Hyderabad","circlename":"Andhra Pradesh","taluk":"Utnoor","districtname":"Adilabad","statename":"TELANGANA","longitude":"NA","latitude":"NA"},{"pincode":"504216","divisionname":"Adilabad","regionname":"Hyderabad","circlename":"Andhra Pradesh","taluk":"Chennur","districtname":"Adilabad","statename":"TELANGANA","longitude":"NA","latitude":"NA"},{"pincode":"504251","divisionname":"Adilabad","regionname":"Hyderabad","circlename":"Andhra Pradesh","taluk":"Luxettipet","districtname":"Adilabad","statename":"TELANGANA","longitude":"NA","latitude":"NA"},{"pincode":"504110","divisionname":"Adilabad","regionname":"Hyderabad","circlename":"Andhra Pradesh","taluk":"Nirmal","districtname":"Adilabad","statename":"TELANGANA","longitude":"NA","latitude":"NA"},{"pincode":"504313","divisionname":"Adilabad","regionname":"Hyderabad","circlename":"Andhra Pradesh","taluk":"Utnoor","districtname":"Adilabad","statename":"TELANGANA","longitude":"NA","latitude":"NA"},{"pincode":"504251","divisionname":"Adilabad","regionname":"Hyderabad","circlename":"Andhra Pradesh","taluk":"Luxettipet","districtname":"Adilabad","statename":"TELANGANA","longitude":"NA","latitude":"NA"},{"pincode":"504207","divisionname":"Adilabad","regionname":"Hyderabad","circlename":"Andhra Pradesh","taluk":"Luxettipet","districtname":"Adilabad","statename":"TELANGANA","longitude":"NA","latitude":"NA"},{"pincode":"504214","divisionname":"Adilabad","regionname":"Hyderabad","circlename":"Andhra Pradesh","taluk":"Chennur","districtname":"Adilabad","statename":"TELANGANA","longitude":"NA","latitude":"NA"},{"pincode":"504205","divisionname":"Adilabad","regionname":"Hyderabad","circlename":"Andhra Pradesh","taluk":"Luxettipet","districtname":"Adilabad","statename":"TELANGANA","longitude":"NA","latitude":"NA"},{"pincode":"504304","divisionname":"Adilabad","regionname":"Hyderabad","circlename":"Andhra Pradesh","taluk":"Boath","districtname":"Adilabad","statename":"TELANGANA","longitude":"NA","latitude":"NA"},{"pincode":"504102","divisionname":"Adilabad","regionname":"Hyderabad","circlename":"Andhra Pradesh","taluk":"Mudhole","districtname":"Adilabad","statename":"TELANGANA","longitude":"NA","latitude":"NA"},{"pincode":"504312","divisionname":"Adilabad","regionname":"Hyderabad","circlename":"Andhra Pradesh","taluk":"Adilabad","districtname":"Adilabad","statename":"TELANGANA","longitude":"NA","latitude":"NA"},{"pincode":"504219","divisionname":"Adilabad","regionname":"Hyderabad","circlename":"Andhra Pradesh","taluk":"Luxettipet","districtname":"Adilabad","statename":"TELANGANA","longitude":"NA","latitude":"NA"},{"pincode":"504312","divisionname":"Adilabad","regionname":"Hyderabad","circlename":"Andhra Pradesh","taluk":"Adilabad","districtname":"Adilabad","statename":"TELANGANA","longitude":"NA","latitude":"NA"},{"pincode":"504313","divisionname":"Adilabad","regionname":"Hyderabad","circlename":"Andhra Pradesh","taluk":"Utnoor","districtname":"Adilabad","statename":"TELANGANA","longitude":"NA","latitude":"NA"},{"pincode":"504101","divisionname":"Adilabad","regionname":"Hyderabad","circlename":"Andhra Pradesh","taluk":"Mudhole","districtname":"Adilabad","statename":"TELANGANA","longitude":"NA","latitude":"NA"},{"pincode":"504293","divisionname":"Adilabad","regionname":"Hyderabad","circlename":"Andhra Pradesh","taluk":"Asifabad","districtname":"Adilabad","statename":"TELANGANA","longitude":"NA","latitude":"NA"},{"pincode":"504201","divisionname":"Adilabad","regionname":"Hyderabad","circlename":"Andhra Pradesh","taluk":"Chennur","districtname":"Adilabad","statename":"TELANGANA","longitude":"NA","latitude":"NA"},{"pincode":"504204","divisionname":"Adilabad","regionname":"Hyderabad","circlename":"Andhra Pradesh","taluk":"Chennur","districtname":"Adilabad","statename":"TELANGANA","longitude":"NA","latitude":"NA"},{"pincode":"504293","divisionname":"Adilabad","regionname":"Hyderabad","circlename":"Andhra Pradesh","taluk":"Asifabad","districtname":"Adilabad","statename":"TELANGANA","longitude":"NA","latitude":"NA"},{"pincode":"504299","divisionname":"Adilabad","regionname":"Hyderabad","circlename":"Andhra Pradesh","taluk":"Sirpur(t)","districtname":"Adilabad","statename":"TELANGANA","longitude":"NA","latitude":"NA"},{"pincode":"504205","divisionname":"Adilabad","regionname":"Hyderabad","circlename":"Andhra Pradesh","taluk":"Luxettipet","districtname":"Adilabad","statename":"TELANGANA","longitude":"NA","latitude":"NA"},{"pincode":"504203","divisionname":"Adilabad","regionname":"Hyderabad","circlename":"Andhra Pradesh","taluk":"NA","districtname":"Adilabad","statename":"TELANGANA","longitude":"NA","latitude":"NA"},{"pincode":"504105","divisionname":"Adilabad","regionname":"Hyderabad","circlename":"Andhra Pradesh","taluk":"Nirmal","districtname":"Adilabad","statename":"TELANGANA","longitude":"NA","latitude":"NA"},{"pincode":"504205","divisionname":"Adilabad","regionname":"Hyderabad","circlename":"Andhra Pradesh","taluk":"Luxettipet","districtname":"Adilabad","statename":"TELANGANA","longitude":"NA","latitude":"NA"},{"pincode":"504109","divisionname":"Adilabad","regionname":"Hyderabad","circlename":"Andhra Pradesh","taluk":"Nirmal","districtname":"Adilabad","statename":"TELANGANA","longitude":"NA","latitude":"NA"},{"pincode":"504306","divisionname":"Adilabad","regionname":"Hyderabad","circlename":"Andhra Pradesh","taluk":"Nirmal","districtname":"Adilabad","statename":"TELANGANA","longitude":"NA","latitude":"NA"},{"pincode":"504273","divisionname":"Adilabad","regionname":"Hyderabad","circlename":"Andhra Pradesh","taluk":"Asifabad","districtname":"Adilabad","statename":"TELANGANA","longitude":"NA","latitude":"NA"},{"pincode":"504231","divisionname":"Adilabad","regionname":"Hyderabad","circlename":"Andhra Pradesh","taluk":"Luxettipet","districtname":"Adilabad","statename":"TELANGANA","longitude":"NA","latitude":"NA"},{"pincode":"504310","divisionname":"Adilabad","regionname":"Hyderabad","circlename":"Andhra Pradesh","taluk":"Nirmal","districtname":"Adilabad","statename":"TELANGANA","longitude":"NA","latitude":"NA"},{"pincode":"504102","divisionname":"Adilabad","regionname":"Hyderabad","circlename":"Andhra Pradesh","taluk":"Mudhole","districtname":"Adilabad","statename":"TELANGANA","longitude":"NA","latitude":"NA"},{"pincode":"504002","divisionname":"Adilabad","regionname":"Hyderabad","circlename":"Andhra Pradesh","taluk":"Adilabad","districtname":"Adilabad","statename":"TELANGANA","longitude":"NA","latitude":"NA"},{"pincode":"504313","divisionname":"Adilabad","regionname":"Hyderabad","circlename":"Andhra Pradesh","taluk":"Utnoor","districtname":"Adilabad","statename":"TELANGANA","longitude":"NA","latitude":"NA"},{"pincode":"504295","divisionname":"Adilabad","regionname":"Hyderabad","circlename":"Andhra Pradesh","taluk":"Asifabad","districtname":"Adilabad","statename":"TELANGANA","longitude":"NA","latitude":"NA"},{"pincode":"504106","divisionname":"Adilabad","regionname":"Hyderabad","circlename":"Andhra Pradesh","taluk":"Nirmal","districtname":"Adilabad","statename":"TELANGANA","longitude":"NA","latitude":"NA"},{"pincode":"504306","divisionname":"Adilabad","regionname":"Hyderabad","circlename":"Andhra Pradesh","taluk":"Nirmal","districtname":"Adilabad","statename":"TELANGANA","longitude":"NA","latitude":"NA"},{"pincode":"504299","divisionname":"Adilabad","regionname":"Hyderabad","circlename":"Andhra Pradesh","taluk":"Sirpur (t)","districtname":"Adilabad","statename":"TELANGANA","longitude":"NA","latitude":"NA"},{"pincode":"504296","divisionname":"Adilabad","regionname":"Hyderabad","circlename":"Andhra Pradesh","taluk":"Asifabad","districtname":"Adilabad","statename":"TELANGANA","longitude":"NA","latitude":"NA"},{"pincode":"504101","divisionname":"Adilabad","regionname":"Hyderabad","circlename":"Andhra Pradesh","taluk":"Mudhole","districtname":"Adilabad","statename":"TELANGANA","longitude":"NA","latitude":"NA"},{"pincode":"504304","divisionname":"Adilabad","regionname":"Hyderabad","circlename":"Andhra Pradesh","taluk":"Boath","districtname":"Adilabad","statename":"TELANGANA","longitude":"NA","latitude":"NA"},{"pincode":"504203","divisionname":"Adilabad","regionname":"Hyderabad","circlename":"Andhra Pradesh","taluk":"NA","districtname":"Adilabad","statename":"TELANGANA","longitude":"NA","latitude":"NA"},{"pincode":"504299","divisionname":"Adilabad","regionname":"Hyderabad","circlename":"Andhra Pradesh","taluk":"Sirpur (t)","districtname":"Adilabad","statename":"TELANGANA","longitude":"NA","latitude":"NA"},{"pincode":"504309","divisionname":"Adilabad","regionname":"Hyderabad","circlename":"Andhra Pradesh","taluk":"Adilabad","districtname":"Adilabad","statename":"TELANGANA","longitude":"NA","latitude":"NA"},{"pincode":"504202","divisionname":"Adilabad","regionname":"Hyderabad","circlename":"Andhra Pradesh","taluk":"Khanapur","districtname":"Adilabad","statename":"TELANGANA","longitude":"NA","latitude":"NA"},{"pincode":"504251","divisionname":"Adilabad","regionname":"Hyderabad","circlename":"Andhra Pradesh","taluk":"Bellampalle","districtname":"Adilabad","statename":"TELANGANA","longitude":"NA","latitude":"NA"},{"pincode":"504251","divisionname":"Adilabad","regionname":"Hyderabad","circlename":"Andhra Pradesh","taluk":"Bellampalle","districtname":"Adilabad","statename":"TELANGANA","longitude":"NA","latitude":"NA"},{"pincode":"504103","divisionname":"Adilabad","regionname":"Hyderabad","circlename":"Andhra Pradesh","taluk":"Mudhole","districtname":"Adilabad","statename":"TELANGANA","longitude":"NA","latitude":"NA"},{"pincode":"504001","divisionname":"Adilabad","regionname":"Hyderabad","circlename":"Andhra Pradesh","taluk":"Adilabad","districtname":"Adilabad","statename":"TELANGANA","longitude":"NA","latitude":"NA"},{"pincode":"504103","divisionname":"Adilabad","regionname":"Hyderabad","circlename":"Andhra Pradesh","taluk":"Mudhole","districtname":"Adilabad","statename":"TELANGANA","longitude":"NA","latitude":"NA"},{"pincode":"504308","divisionname":"Adilabad","regionname":"Hyderabad","circlename":"Andhra Pradesh","taluk":"Adilabad","districtname":"Adilabad","statename":"TELANGANA","longitude":"NA","latitude":"NA"},{"pincode":"504204","divisionname":"Adilabad","regionname":"Hyderabad","circlename":"Andhra Pradesh","taluk":"Chennur","districtname":"Adilabad","statename":"TELANGANA","longitude":"NA","latitude":"NA"},{"pincode":"504311","divisionname":"Adilabad","regionname":"Hyderabad","circlename":"Andhra Pradesh","taluk":"Utnoor","districtname":"Adilabad","statename":"TELANGANA","longitude":"NA","latitude":"NA"},{"pincode":"504002","divisionname":"Adilabad","regionname":"Hyderabad","circlename":"Andhra Pradesh","taluk":"Adilabad","districtname":"Adilabad","statename":"TELANGANA","longitude":"NA","latitude":"NA"},{"pincode":"504273","divisionname":"Adilabad","regionname":"Hyderabad","circlename":"Andhra Pradesh","taluk":"Asifabad","districtname":"Adilabad","statename":"TELANGANA","longitude":"NA","latitude":"NA"},{"pincode":"504103","divisionname":"Adilabad","regionname":"Hyderabad","circlename":"Andhra Pradesh","taluk":"Mudhole","districtname":"Adilabad","statename":"TELANGANA","longitude":"NA","latitude":"NA"},{"pincode":"504103","divisionname":"Adilabad","regionname":"Hyderabad","circlename":"Andhra Pradesh","taluk":"Mudhole","districtname":"Adilabad","statename":"TELANGANA","longitude":"NA","latitude":"NA"},{"pincode":"504001","divisionname":"Adilabad","regionname":"Hyderabad","circlename":"Andhra Pradesh","taluk":"Adilabad","districtname":"Adilabad","statename":"TELANGANA","longitude":"NA","latitude":"NA"},{"pincode":"504304","divisionname":"Adilabad","regionname":"Hyderabad","circlename":"Andhra Pradesh","taluk":"Boath","districtname":"Adilabad","statename":"TELANGANA","longitude":"NA","latitude":"NA"},{"pincode":"504273","divisionname":"Adilabad","regionname":"Hyderabad","circlename":"Andhra Pradesh","taluk":"Asifabad","districtname":"Adilabad","statename":"TELANGANA","longitude":"NA","latitude":"NA"},{"pincode":"504101","divisionname":"Adilabad","regionname":"Hyderabad","circlename":"Andhra Pradesh","taluk":"Mudhole","districtname":"Adilabad","statename":"TELANGANA","longitude":"NA","latitude":"NA"},{"pincode":"504311","divisionname":"Adilabad","regionname":"Hyderabad","circlename":"Andhra Pradesh","taluk":"Utnoor","districtname":"Adilabad","statename":"TELANGANA","longitude":"NA","latitude":"NA"},{"pincode":"504306","divisionname":"Adilabad","regionname":"Hyderabad","circlename":"Andhra Pradesh","taluk":"Nirmal","districtname":"Adilabad","statename":"TELANGANA","longitude":"NA","latitude":"NA"},{"pincode":"504304","divisionname":"Adilabad","regionname":"Hyderabad","circlename":"Andhra Pradesh","taluk":"Boath","districtname":"Adilabad","statename":"TELANGANA","longitude":"NA","latitude":"NA"},{"pincode":"504273","divisionname":"Adilabad","regionname":"Hyderabad","circlename":"Andhra Pradesh","taluk":"Asifabad","districtname":"Adilabad","statename":"TELANGANA","longitude":"NA","latitude":"NA"},{"pincode":"504101","divisionname":"Adilabad","regionname":"Hyderabad","circlename":"Andhra Pradesh","taluk":"Mudhole","districtname":"Adilabad","statename":"TELANGANA","longitude":"NA","latitude":"NA"},{"pincode":"504307","divisionname":"Adilabad","regionname":"Hyderabad","circlename":"Andhra Pradesh","taluk":"Boath","districtname":"Adilabad","statename":"TELANGANA","longitude":"NA","latitude":"NA"},{"pincode":"504110","divisionname":"Adilabad","regionname":"Hyderabad","circlename":"Andhra Pradesh","taluk":"Nirmal","districtname":"Adilabad","statename":"TELANGANA","longitude":"NA","latitude":"NA"},{"pincode":"504272","divisionname":"Adilabad","regionname":"Hyderabad","circlename":"Andhra Pradesh","taluk":"Asifabad","districtname":"Adilabad","statename":"TELANGANA","longitude":"NA","latitude":"NA"},{"pincode":"504101","divisionname":"Adilabad","regionname":"Hyderabad","circlename":"Andhra Pradesh","taluk":"Mudhole","districtname":"Adilabad","statename":"TELANGANA","longitude":"NA","latitude":"NA"},{"pincode":"504251","divisionname":"Adilabad","regionname":"Hyderabad","circlename":"Andhra Pradesh","taluk":"Luxettipet","districtname":"Adilabad","statename":"TELANGANA","longitude":"NA","latitude":"NA"},{"pincode":"504251","divisionname":"Adilabad","regionname":"Hyderabad","circlename":"Andhra Pradesh","taluk":"Luxettipet","districtname":"Adilabad","statename":"TELANGANA","longitude":"NA","latitude":"NA"},{"pincode":"504323","divisionname":"Adilabad","regionname":"Hyderabad","circlename":"Andhra Pradesh","taluk":"Neradigonda","districtname":"Adilabad","statename":"TELANGANA","longitude":"NA","latitude":"NA"},{"pincode":"504293","divisionname":"Adilabad","regionname":"Hyderabad","circlename":"Andhra Pradesh","taluk":"Asifabad","districtname":"Adilabad","statename":"TELANGANA","longitude":"NA","latitude":"NA"},{"pincode":"504272","divisionname":"Adilabad","regionname":"Hyderabad","circlename":"Andhra Pradesh","taluk":"Asifabad","districtname":"Adilabad","statename":"TELANGANA","longitude":"NA","latitude":"NA"},{"pincode":"504002","divisionname":"Adilabad","regionname":"Hyderabad","circlename":"Andhra Pradesh","taluk":"Adilabad","districtname":"Adilabad","statename":"TELANGANA","longitude":"NA","latitude":"NA"},{"pincode":"504215","divisionname":"Adilabad","regionname":"Hyderabad","circlename":"Andhra Pradesh","taluk":"Luxettipet","districtname":"Adilabad","statename":"TELANGANA","longitude":"NA","latitude":"NA"},{"pincode":"504311","divisionname":"Adilabad","regionname":"Hyderabad","circlename":"Andhra Pradesh","taluk":"Utnoor","districtname":"Adilabad","statename":"TELANGANA","longitude":"NA","latitude":"NA"},{"pincode":"504309","divisionname":"Adilabad","regionname":"Hyderabad","circlename":"Andhra Pradesh","taluk":"Adilabad","districtname":"Adilabad","statename":"TELANGANA","longitude":"NA","latitude":"NA"},{"pincode":"504103","divisionname":"Adilabad","regionname":"Hyderabad","circlename":"Andhra Pradesh","taluk":"Kubeer","districtname":"Adilabad","statename":"TELANGANA","longitude":"NA","latitude":"NA"},{"pincode":"504296","divisionname":"Adilabad","regionname":"Hyderabad","circlename":"Andhra Pradesh","taluk":"Sirpur (t)","districtname":"Adilabad","statename":"TELANGANA","longitude":"NA","latitude":"NA"},{"pincode":"504346","divisionname":"Adilabad","regionname":"Hyderabad","circlename":"Andhra Pradesh","taluk":"Utnoor","districtname":"Adilabad","statename":"TELANGANA","longitude":"NA","latitude":"NA"},{"pincode":"504103","divisionname":"Adilabad","regionname":"Hyderabad","circlename":"Andhra Pradesh","taluk":"Mudhole","districtname":"Adilabad","statename":"TELANGANA","longitude":"NA","latitude":"NA"},{"pincode":"504110","divisionname":"Adilabad","regionname":"Hyderabad","circlename":"Andhra Pradesh","taluk":"Nirmal","districtname":"Adilabad","statename":"TELANGANA","longitude":"NA","latitude":"NA"},{"pincode":"504002","divisionname":"Adilabad","regionname":"Hyderabad","circlename":"Andhra Pradesh","taluk":"Adilabad","districtname":"Adilabad","statename":"TELANGANA","longitude":"NA","latitude":"NA"},{"pincode":"504201","divisionname":"Adilabad","regionname":"Hyderabad","circlename":"Andhra Pradesh","taluk":"Chennoor","districtname":"Adilabad","statename":"TELANGANA","longitude":"NA","latitude":"NA"},{"pincode":"504296","divisionname":"Adilabad","regionname":"Hyderabad","circlename":"Andhra Pradesh","taluk":"Sirpur (t)","districtname":"Adilabad","statename":"TELANGANA","longitude":"NA","latitude":"NA"},{"pincode":"504205","divisionname":"Adilabad","regionname":"Hyderabad","circlename":"Andhra Pradesh","taluk":"Luxettipet","districtname":"Adilabad","statename":"TELANGANA","longitude":"NA","latitude":"NA"},{"pincode":"504299","divisionname":"Adilabad","regionname":"Hyderabad","circlename":"Andhra Pradesh","taluk":"Sirpur (t)","districtname":"Adilabad","statename":"TELANGANA","longitude":"NA","latitude":"NA"},{"pincode":"504299","divisionname":"Adilabad","regionname":"Hyderabad","circlename":"Andhra Pradesh","taluk":"Sirpur (t)","districtname":"Adilabad","statename":"TELANGANA","longitude":"NA","latitude":"NA"},{"pincode":"504304","divisionname":"Adilabad","regionname":"Hyderabad","circlename":"Andhra Pradesh","taluk":"Boath","districtname":"Adilabad","statename":"TELANGANA","longitude":"NA","latitude":"NA"},{"pincode":"504310","divisionname":"Adilabad","regionname":"Hyderabad","circlename":"Andhra Pradesh","taluk":"Nirmal","districtname":"Adilabad","statename":"TELANGANA","longitude":"NA","latitude":"NA"},{"pincode":"504294","divisionname":"Adilabad","regionname":"Hyderabad","circlename":"Andhra Pradesh","taluk":"Asifabad","districtname":"Adilabad","statename":"TELANGANA","longitude":"NA","latitude":"NA"},{"pincode":"504306","divisionname":"Adilabad","regionname":"Hyderabad","circlename":"Andhra Pradesh","taluk":"Nirmal","districtname":"Adilabad","statename":"TELANGANA","longitude":"NA","latitude":"NA"},{"pincode":"504202","divisionname":"Adilabad","regionname":"Hyderabad","circlename":"Andhra Pradesh","taluk":"Kaddam (Peddur)","districtname":"Adilabad","statename":"TELANGANA","longitude":"NA","latitude":"NA"},{"pincode":"504103","divisionname":"Adilabad","regionname":"Hyderabad","circlename":"Andhra Pradesh","taluk":"Mudhole","districtname":"Adilabad","statename":"TELANGANA","longitude":"NA","latitude":"NA"},{"pincode":"504313","divisionname":"Adilabad","regionname":"Hyderabad","circlename":"Andhra Pradesh","taluk":"Utnoor","districtname":"Adilabad","statename":"TELANGANA","longitude":"NA","latitude":"NA"},{"pincode":"504302","divisionname":"Adilabad","regionname":"Hyderabad","circlename":"Andhra Pradesh","taluk":"Mancherial","districtname":"Adilabad","statename":"TELANGANA","longitude":"NA","latitude":"NA"},{"pincode":"504002","divisionname":"Adilabad","regionname":"Hyderabad","circlename":"Andhra Pradesh","taluk":"Adilabad","districtname":"Adilabad","statename":"TELANGANA","longitude":"NA","latitude":"NA"},{"pincode":"504299","divisionname":"Adilabad","regionname":"Hyderabad","circlename":"Andhra Pradesh","taluk":"Sirpur (t)","districtname":"Adilabad","statename":"TELANGANA","longitude":"NA","latitude":"NA"},{"pincode":"504206","divisionname":"Adilabad","regionname":"Hyderabad","circlename":"Andhra Pradesh","taluk":"Luxettipet","districtname":"Adilabad","statename":"TELANGANA","longitude":"NA","latitude":"NA"},{"pincode":"504311","divisionname":"Adilabad","regionname":"Hyderabad","circlename":"Andhra Pradesh","taluk":"Utnoor","districtname":"Adilabad","statename":"TELANGANA","longitude":"NA","latitude":"NA"},{"pincode":"504346","divisionname":"Adilabad","regionname":"Hyderabad","circlename":"Andhra Pradesh","taluk":"Utnoor","districtname":"Adilabad","statename":"TELANGANA","longitude":"NA","latitude":"NA"},{"pincode":"504002","divisionname":"Adilabad","regionname":"Hyderabad","circlename":"Andhra Pradesh","taluk":"Adilabad","districtname":"Adilabad","statename":"TELANGANA","longitude":"NA","latitude":"NA"},{"pincode":"504219","divisionname":"Adilabad","regionname":"Hyderabad","circlename":"Andhra Pradesh","taluk":"Luxettipet","districtname":"Adilabad","statename":"TELANGANA","longitude":"NA","latitude":"NA"},{"pincode":"504101","divisionname":"Adilabad","regionname":"Hyderabad","circlename":"Andhra Pradesh","taluk":"Mudhole","districtname":"Adilabad","statename":"TELANGANA","longitude":"NA","latitude":"NA"},{"pincode":"504297","divisionname":"Adilabad","regionname":"Hyderabad","circlename":"Andhra Pradesh","taluk":"Asifabad","districtname":"Adilabad","statename":"TELANGANA","longitude":"NA","latitude":"NA"},{"pincode":"504219","divisionname":"Adilabad","regionname":"Hyderabad","circlename":"Andhra Pradesh","taluk":"Luxettipet","districtname":"Adilabad","statename":"TELANGANA","longitude":"NA","latitude":"NA"},{"pincode":"504293","divisionname":"Adilabad","regionname":"Hyderabad","circlename":"Andhra Pradesh","taluk":"Asifabad","districtname":"Adilabad","statename":"TELANGANA","longitude":"NA","latitude":"NA"},{"pincode":"504312","divisionname":"Adilabad","regionname":"Hyderabad","circlename":"Andhra Pradesh","taluk":"Adilabad","districtname":"Adilabad","statename":"TELANGANA","longitude":"NA","latitude":"NA"},{"pincode":"504312","divisionname":"Adilabad","regionname":"Hyderabad","circlename":"Andhra Pradesh","taluk":"Adilabad","districtname":"Adilabad","statename":"TELANGANA","longitude":"NA","latitude":"NA"},{"pincode":"504304","divisionname":"Adilabad","regionname":"Hyderabad","circlename":"Andhra Pradesh","taluk":"Boath","districtname":"Adilabad","statename":"TELANGANA","longitude":"NA","latitude":"NA"},{"pincode":"504299","divisionname":"Adilabad","regionname":"Hyderabad","circlename":"Andhra Pradesh","taluk":"Sirpur (t)","districtname":"Adilabad","statename":"TELANGANA","longitude":"NA","latitude":"NA"},{"pincode":"504273","divisionname":"Adilabad","regionname":"Hyderabad","circlename":"Andhra Pradesh","taluk":"Asifabad","districtname":"Adilabad","statename":"TELANGANA","longitude":"NA","latitude":"NA"},{"pincode":"504207","divisionname":"Adilabad","regionname":"Hyderabad","circlename":"Andhra Pradesh","taluk":"Luxettipet","districtname":"Adilabad","statename":"TELANGANA","longitude":"NA","latitude":"NA"},{"pincode":"504106","divisionname":"Adilabad","regionname":"Hyderabad","circlename":"Andhra Pradesh","taluk":"Nirmal","districtname":"Adilabad","statename":"TELANGANA","longitude":"NA","latitude":"NA"},{"pincode":"504231","divisionname":"Adilabad","regionname":"Hyderabad","circlename":"Andhra Pradesh","taluk":"Luxettipet","districtname":"Adilabad","statename":"TELANGANA","longitude":"NA","latitude":"NA"},{"pincode":"504293","divisionname":"Adilabad","regionname":"Hyderabad","circlename":"Andhra Pradesh","taluk":"Asifabad","districtname":"Adilabad","statename":"TELANGANA","longitude":"NA","latitude":"NA"},{"pincode":"504346","divisionname":"Adilabad","regionname":"Hyderabad","circlename":"Andhra Pradesh","taluk":"Utnoor","districtname":"Adilabad","statename":"TELANGANA","longitude":"NA","latitude":"NA"},{"pincode":"504311","divisionname":"Adilabad","regionname":"Hyderabad","circlename":"Andhra Pradesh","taluk":"Utnoor","districtname":"Adilabad","statename":"TELANGANA","longitude":"NA","latitude":"NA"},{"pincode":"504292","divisionname":"Adilabad","regionname":"Hyderabad","circlename":"Andhra Pradesh","taluk":"Asifabad","districtname":"Adilabad","statename":"TELANGANA","longitude":"NA","latitude":"NA"},{"pincode":"504295","divisionname":"Adilabad","regionname":"Hyderabad","circlename":"Andhra Pradesh","taluk":"Asifabad","districtname":"Adilabad","statename":"TELANGANA","longitude":"NA","latitude":"NA"},{"pincode":"504203","divisionname":"Adilabad","regionname":"Hyderabad","circlename":"Andhra Pradesh","taluk":"Khanapur","districtname":"Adilabad","statename":"TELANGANA","longitude":"NA","latitude":"NA"},{"pincode":"504295","divisionname":"Adilabad","regionname":"Hyderabad","circlename":"Andhra Pradesh","taluk":"Asifabad","districtname":"Adilabad","statename":"TELANGANA","longitude":"NA","latitude":"NA"},{"pincode":"504002","divisionname":"Adilabad","regionname":"Hyderabad","circlename":"Andhra Pradesh","taluk":"Adilabad","districtname":"Adilabad","statename":"TELANGANA","longitude":"NA","latitude":"NA"},{"pincode":"504309","divisionname":"Adilabad","regionname":"Hyderabad","circlename":"Andhra Pradesh","taluk":"Adilabad","districtname":"Adilabad","statename":"TELANGANA","longitude":"NA","latitude":"NA"},{"pincode":"504101","divisionname":"Adilabad","regionname":"Hyderabad","circlename":"Andhra Pradesh","taluk":"Mudhole","districtname":"Adilabad","statename":"TELANGANA","longitude":"NA","latitude":"NA"},{"pincode":"504204","divisionname":"Adilabad","regionname":"Hyderabad","circlename":"Andhra Pradesh","taluk":"Chennur","districtname":"Adilabad","statename":"TELANGANA","longitude":"NA","latitude":"NA"},{"pincode":"504216","divisionname":"Adilabad","regionname":"Hyderabad","circlename":"Andhra Pradesh","taluk":"Chennur","districtname":"Adilabad","statename":"TELANGANA","longitude":"NA","latitude":"NA"},{"pincode":"504205","divisionname":"Adilabad","regionname":"Hyderabad","circlename":"Andhra Pradesh","taluk":"Luxettipet","districtname":"Adilabad","statename":"TELANGANA","longitude":"NA","latitude":"NA"},{"pincode":"504307","divisionname":"Adilabad","regionname":"Hyderabad","circlename":"Andhra Pradesh","taluk":"Boath","districtname":"Adilabad","statename":"TELANGANA","longitude":"NA","latitude":"NA"},{"pincode":"504308","divisionname":"Adilabad","regionname":"Hyderabad","circlename":"Andhra Pradesh","taluk":"Boath","districtname":"Adilabad","statename":"TELANGANA","longitude":"NA","latitude":"NA"},{"pincode":"504201","divisionname":"Adilabad","regionname":"Hyderabad","circlename":"Andhra Pradesh","taluk":"Chennur","districtname":"Adilabad","statename":"TELANGANA","longitude":"NA","latitude":"NA"},{"pincode":"504102","divisionname":"Adilabad","regionname":"Hyderabad","circlename":"Andhra Pradesh","taluk":"Mudhole","districtname":"Adilabad","statename":"TELANGANA","longitude":"NA","latitude":"NA"},{"pincode":"504201","divisionname":"Adilabad","regionname":"Hyderabad","circlename":"Andhra Pradesh","taluk":"Chennur","districtname":"Adilabad","statename":"TELANGANA","longitude":"NA","latitude":"NA"},{"pincode":"504292","divisionname":"Adilabad","regionname":"Hyderabad","circlename":"Andhra Pradesh","taluk":"Asifabad","districtname":"Adilabad","statename":"TELANGANA","longitude":"NA","latitude":"NA"},{"pincode":"504309","divisionname":"Adilabad","regionname":"Hyderabad","circlename":"Andhra Pradesh","taluk":"Adilabad","districtname":"Adilabad","statename":"TELANGANA","longitude":"NA","latitude":"NA"},{"pincode":"504323","divisionname":"Adilabad","regionname":"Hyderabad","circlename":"Andhra Pradesh","taluk":"Nirmal","districtname":"Adilabad","statename":"TELANGANA","longitude":"NA","latitude":"NA"},{"pincode":"504310","divisionname":"Adilabad","regionname":"Hyderabad","circlename":"Andhra Pradesh","taluk":"Nirmal","districtname":"Adilabad","statename":"TELANGANA","longitude":"NA","latitude":"NA"},{"pincode":"504215","divisionname":"Adilabad","regionname":"Hyderabad","circlename":"Andhra Pradesh","taluk":"Luxettipet","districtname":"Adilabad","statename":"TELANGANA","longitude":"NA","latitude":"NA"},{"pincode":"504312","divisionname":"Adilabad","regionname":"Hyderabad","circlename":"Andhra Pradesh","taluk":"Adilabad","districtname":"Adilabad","statename":"TELANGANA","longitude":"NA","latitude":"NA"},{"pincode":"504214","divisionname":"Adilabad","regionname":"Hyderabad","circlename":"Andhra Pradesh","taluk":"Chennur","districtname":"Adilabad","statename":"TELANGANA","longitude":"NA","latitude":"NA"},{"pincode":"504103","divisionname":"Adilabad","regionname":"Hyderabad","circlename":"Andhra Pradesh","taluk":"Mudhole","districtname":"Adilabad","statename":"TELANGANA","longitude":"NA","latitude":"NA"},{"pincode":"504311","divisionname":"Adilabad","regionname":"Hyderabad","circlename":"Andhra Pradesh","taluk":"Sirpur","districtname":"Adilabad","statename":"TELANGANA","longitude":"NA","latitude":"NA"},{"pincode":"504273","divisionname":"Adilabad","regionname":"Hyderabad","circlename":"Andhra Pradesh","taluk":"Asifabad","districtname":"Adilabad","statename":"TELANGANA","longitude":"NA","latitude":"NA"},{"pincode":"504304","divisionname":"Adilabad","regionname":"Hyderabad","circlename":"Andhra Pradesh","taluk":"Boath","districtname":"Adilabad","statename":"TELANGANA","longitude":"NA","latitude":"NA"},{"pincode":"504106","divisionname":"Adilabad","regionname":"Hyderabad","circlename":"Andhra Pradesh","taluk":"Nirmal","districtname":"Adilabad","statename":"TELANGANA","longitude":"NA","latitude":"NA"},{"pincode":"504110","divisionname":"Adilabad","regionname":"Hyderabad","circlename":"Andhra Pradesh","taluk":"Nirmal","districtname":"Adilabad","statename":"TELANGANA","longitude":"NA","latitude":"NA"},{"pincode":"504299","divisionname":"Adilabad","regionname":"Hyderabad","circlename":"Andhra Pradesh","taluk":"Sirpur (t)","districtname":"Adilabad","statename":"TELANGANA","longitude":"NA","latitude":"NA"},{"pincode":"504103","divisionname":"Adilabad","regionname":"Hyderabad","circlename":"Andhra Pradesh","taluk":"Mudhole","districtname":"Adilabad","statename":"TELANGANA","longitude":"NA","latitude":"NA"},{"pincode":"504105","divisionname":"Adilabad","regionname":"Hyderabad","circlename":"Andhra Pradesh","taluk":"Nirmal","districtname":"Adilabad","statename":"TELANGANA","longitude":"NA","latitude":"NA"},{"pincode":"504304","divisionname":"Adilabad","regionname":"Hyderabad","circlename":"Andhra Pradesh","taluk":"Boath","districtname":"Adilabad","statename":"TELANGANA","longitude":"NA","latitude":"NA"},{"pincode":"504312","divisionname":"Adilabad","regionname":"Hyderabad","circlename":"Andhra Pradesh","taluk":"Adilabad","districtname":"Adilabad","statename":"TELANGANA","longitude":"NA","latitude":"NA"},{"pincode":"504323","divisionname":"Adilabad","regionname":"Hyderabad","circlename":"Andhra Pradesh","taluk":"Boath","districtname":"Adilabad","statename":"TELANGANA","longitude":"NA","latitude":"NA"},{"pincode":"504216","divisionname":"Adilabad","regionname":"Hyderabad","circlename":"Andhra Pradesh","taluk":"Chennur","districtname":"Adilabad","statename":"TELANGANA","longitude":"NA","latitude":"NA"},{"pincode":"504109","divisionname":"Adilabad","regionname":"Hyderabad","circlename":"Andhra Pradesh","taluk":"Mudhole","districtname":"Adilabad","statename":"TELANGANA","longitude":"NA","latitude":"NA"},{"pincode":"504219","divisionname":"Adilabad","regionname":"Hyderabad","circlename":"Andhra Pradesh","taluk":"Luxettipet","districtname":"Adilabad","statename":"TELANGANA","longitude":"NA","latitude":"NA"},{"pincode":"504301","divisionname":"Adilabad","regionname":"Hyderabad","circlename":"Andhra Pradesh","taluk":"Mandamarri","districtname":"Adilabad","statename":"TELANGANA","longitude":"NA","latitude":"NA"},{"pincode":"504214","divisionname":"Adilabad","regionname":"Hyderabad","circlename":"Andhra Pradesh","taluk":"Chennur","districtname":"Adilabad","statename":"TELANGANA","longitude":"NA","latitude":"NA"},{"pincode":"504309","divisionname":"Adilabad","regionname":"Hyderabad","circlename":"Andhra Pradesh","taluk":"Jainad","districtname":"Adilabad","statename":"TELANGANA","longitude":"NA","latitude":"NA"},{"pincode":"504311","divisionname":"Adilabad","regionname":"Hyderabad","circlename":"Andhra Pradesh","taluk":"Utnoor","districtname":"Adilabad","statename":"TELANGANA","longitude":"NA","latitude":"NA"},{"pincode":"504106","divisionname":"Adilabad","regionname":"Hyderabad","circlename":"Andhra Pradesh","taluk":"Nirmal","districtname":"Adilabad","statename":"TELANGANA","longitude":"NA","latitude":"NA"},{"pincode":"504207","divisionname":"Adilabad","regionname":"Hyderabad","circlename":"Andhra Pradesh","taluk":"Luxettipet","districtname":"Adilabad","statename":"TELANGANA","longitude":"NA","latitude":"NA"},{"pincode":"504109","divisionname":"Adilabad","regionname":"Hyderabad","circlename":"Andhra Pradesh","taluk":"Nirmal","districtname":"Adilabad","statename":"TELANGANA","longitude":"NA","latitude":"NA"},{"pincode":"504202","divisionname":"Adilabad","regionname":"Hyderabad","circlename":"Andhra Pradesh","taluk":"Khanapur","districtname":"Adilabad","statename":"TELANGANA","longitude":"NA","latitude":"NA"},{"pincode":"504206","divisionname":"Adilabad","regionname":"Hyderabad","circlename":"Andhra Pradesh","taluk":"Luxettipet","districtname":"Adilabad","statename":"TELANGANA","longitude":"NA","latitude":"NA"},{"pincode":"504313","divisionname":"Adilabad","regionname":"Hyderabad","circlename":"Andhra Pradesh","taluk":"Utnoor","districtname":"Adilabad","statename":"TELANGANA","longitude":"NA","latitude":"NA"},{"pincode":"504312","divisionname":"Adilabad","regionname":"Hyderabad","circlename":"Andhra Pradesh","taluk":"Adilabad","districtname":"Adilabad","statename":"TELANGANA","longitude":"NA","latitude":"NA"},{"pincode":"504104","divisionname":"Adilabad","regionname":"Hyderabad","circlename":"Andhra Pradesh","taluk":"Nirmal","districtname":"Adilabad","statename":"TELANGANA","longitude":"NA","latitude":"NA"},{"pincode":"504299","divisionname":"Adilabad","regionname":"Hyderabad","circlename":"Andhra Pradesh","taluk":"Sirpur (t)","districtname":"Adilabad","statename":"TELANGANA","longitude":"NA","latitude":"NA"},{"pincode":"504215","divisionname":"Adilabad","regionname":"Hyderabad","circlename":"Andhra Pradesh","taluk":"Luxettipet","districtname":"Adilabad","statename":"TELANGANA","longitude":"NA","latitude":"NA"},{"pincode":"504296","divisionname":"Adilabad","regionname":"Hyderabad","circlename":"Andhra Pradesh","taluk":"Kagaznagar","districtname":"Adilabad","statename":"TELANGANA","longitude":"NA","latitude":"NA"},{"pincode":"504105","divisionname":"Adilabad","regionname":"Hyderabad","circlename":"Andhra Pradesh","taluk":"Nirmal","districtname":"Adilabad","statename":"TELANGANA","longitude":"NA","latitude":"NA"},{"pincode":"504220","divisionname":"Adilabad","regionname":"Hyderabad","circlename":"Andhra Pradesh","taluk":"Luxettipet","districtname":"Adilabad","statename":"TELANGANA","longitude":"NA","latitude":"NA"},{"pincode":"504206","divisionname":"Adilabad","regionname":"Hyderabad","circlename":"Andhra Pradesh","taluk":"Luxettipet","districtname":"Adilabad","statename":"TELANGANA","longitude":"NA","latitude":"NA"},{"pincode":"504204","divisionname":"Adilabad","regionname":"Hyderabad","circlename":"Andhra Pradesh","taluk":"Chennur","districtname":"Adilabad","statename":"TELANGANA","longitude":"NA","latitude":"NA"},{"pincode":"504202","divisionname":"Adilabad","regionname":"Hyderabad","circlename":"Andhra Pradesh","taluk":"Khanapur","districtname":"Adilabad","statename":"TELANGANA","longitude":"NA","latitude":"NA"},{"pincode":"504103","divisionname":"Adilabad","regionname":"Hyderabad","circlename":"Andhra Pradesh","taluk":"Bhainsa","districtname":"Adilabad","statename":"TELANGANA","longitude":"NA","latitude":"NA"},{"pincode":"504313","divisionname":"Adilabad","regionname":"Hyderabad","circlename":"Andhra Pradesh","taluk":"Sirpur","districtname":"Adilabad","statename":"TELANGANA","longitude":"NA","latitude":"NA"},{"pincode":"504103","divisionname":"Adilabad","regionname":"Hyderabad","circlename":"Andhra Pradesh","taluk":"Mudhole","districtname":"Adilabad","statename":"TELANGANA","longitude":"NA","latitude":"NA"},{"pincode":"504110","divisionname":"Adilabad","regionname":"Hyderabad","circlename":"Andhra Pradesh","taluk":"Nirmal","districtname":"Adilabad","statename":"TELANGANA","longitude":"NA","latitude":"NA"},{"pincode":"504103","divisionname":"Adilabad","regionname":"Hyderabad","circlename":"Andhra Pradesh","taluk":"Mudhole","districtname":"Adilabad","statename":"TELANGANA","longitude":"NA","latitude":"NA"},{"pincode":"504214","divisionname":"Adilabad","regionname":"Hyderabad","circlename":"Andhra Pradesh","taluk":"Chennur","districtname":"Adilabad","statename":"TELANGANA","longitude":"NA","latitude":"NA"},{"pincode":"504106","divisionname":"Adilabad","regionname":"Hyderabad","circlename":"Andhra Pradesh","taluk":"Nirmal","districtname":"Adilabad","statename":"TELANGANA","longitude":"NA","latitude":"NA"},{"pincode":"504273","divisionname":"Adilabad","regionname":"Hyderabad","circlename":"Andhra Pradesh","taluk":"Asifabad","districtname":"Adilabad","statename":"TELANGANA","longitude":"NA","latitude":"NA"},{"pincode":"504307","divisionname":"Adilabad","regionname":"Hyderabad","circlename":"Andhra Pradesh","taluk":"Boath","districtname":"Adilabad","statename":"TELANGANA","longitude":"NA","latitude":"NA"},{"pincode":"504310","divisionname":"Adilabad","regionname":"Hyderabad","circlename":"Andhra Pradesh","taluk":"Nirmal","districtname":"Adilabad","statename":"TELANGANA","longitude":"NA","latitude":"NA"},{"pincode":"504204","divisionname":"Adilabad","regionname":"Hyderabad","circlename":"Andhra Pradesh","taluk":"Chennur","districtname":"Adilabad","statename":"TELANGANA","longitude":"NA","latitude":"NA"},{"pincode":"504206","divisionname":"Adilabad","regionname":"Hyderabad","circlename":"Andhra Pradesh","taluk":"Luxettipet","districtname":"Adilabad","statename":"TELANGANA","longitude":"NA","latitude":"NA"},{"pincode":"504313","divisionname":"Adilabad","regionname":"Hyderabad","circlename":"Andhra Pradesh","taluk":"Utnoor","districtname":"Adilabad","statename":"TELANGANA","longitude":"NA","latitude":"NA"},{"pincode":"504208","divisionname":"Adilabad","regionname":"Hyderabad","circlename":"Andhra Pradesh","taluk":"Mancherial","districtname":"Adilabad","statename":"TELANGANA","longitude":"NA","latitude":"NA"},{"pincode":"504209","divisionname":"Adilabad","regionname":"Hyderabad","circlename":"Andhra Pradesh","taluk":"Mancherial","districtname":"Adilabad","statename":"TELANGANA","longitude":"NA","latitude":"NA"},{"pincode":"504208","divisionname":"Adilabad","regionname":"Hyderabad","circlename":"Andhra Pradesh","taluk":"Luxettipet","districtname":"Adilabad","statename":"TELANGANA","longitude":"NA","latitude":"NA"},{"pincode":"504231","divisionname":"Adilabad","regionname":"Hyderabad","circlename":"Andhra Pradesh","taluk":"Mandamarri","districtname":"Adilabad","statename":"TELANGANA","longitude":"NA","latitude":"NA"},{"pincode":"504231","divisionname":"Adilabad","regionname":"Hyderabad","circlename":"Andhra Pradesh","taluk":"Mandamarri","districtname":"Adilabad","statename":"TELANGANA","longitude":"NA","latitude":"NA"},{"pincode":"504203","divisionname":"Adilabad","regionname":"Hyderabad","circlename":"Andhra Pradesh","taluk":"NA","districtname":"Adilabad","statename":"TELANGANA","longitude":"NA","latitude":"NA"},{"pincode":"504297","divisionname":"Adilabad","regionname":"Hyderabad","circlename":"Andhra Pradesh","taluk":"Asifabad","districtname":"Adilabad","statename":"TELANGANA","longitude":"NA","latitude":"NA"},{"pincode":"504297","divisionname":"Adilabad","regionname":"Hyderabad","circlename":"Andhra Pradesh","taluk":"Asifabad","districtname":"Adilabad","statename":"TELANGANA","longitude":"NA","latitude":"NA"},{"pincode":"504106","divisionname":"Adilabad","regionname":"Hyderabad","circlename":"Andhra Pradesh","taluk":"Nirmal","districtname":"Adilabad","statename":"TELANGANA","longitude":"NA","latitude":"NA"},{"pincode":"504311","divisionname":"Adilabad","regionname":"Hyderabad","circlename":"Andhra Pradesh","taluk":"Utnoor","districtname":"Adilabad","statename":"TELANGANA","longitude":"NA","latitude":"NA"},{"pincode":"504104","divisionname":"Adilabad","regionname":"Hyderabad","circlename":"Andhra Pradesh","taluk":"Nirmal","districtname":"Adilabad","statename":"TELANGANA","longitude":"NA","latitude":"NA"},{"pincode":"504304","divisionname":"Adilabad","regionname":"Hyderabad","circlename":"Andhra Pradesh","taluk":"Boath","districtname":"Adilabad","statename":"TELANGANA","longitude":"NA","latitude":"NA"},{"pincode":"504313","divisionname":"Adilabad","regionname":"Hyderabad","circlename":"Andhra Pradesh","taluk":"Utnoor","districtname":"Adilabad","statename":"TELANGANA","longitude":"NA","latitude":"NA"},{"pincode":"504299","divisionname":"Adilabad","regionname":"Hyderabad","circlename":"Andhra Pradesh","taluk":"Sirpur (t)","districtname":"Adilabad","statename":"TELANGANA","longitude":"NA","latitude":"NA"},{"pincode":"504002","divisionname":"Adilabad","regionname":"Hyderabad","circlename":"Andhra Pradesh","taluk":"Adilabad","districtname":"Adilabad","statename":"TELANGANA","longitude":"NA","latitude":"NA"},{"pincode":"504310","divisionname":"Adilabad","regionname":"Hyderabad","circlename":"Andhra Pradesh","taluk":"Nirmal","districtname":"Adilabad","statename":"TELANGANA","longitude":"NA","latitude":"NA"},{"pincode":"504219","divisionname":"Adilabad","regionname":"Hyderabad","circlename":"Andhra Pradesh","taluk":"Luxettipet","districtname":"Adilabad","statename":"TELANGANA","longitude":"NA","latitude":"NA"},{"pincode":"504251","divisionname":"Adilabad","regionname":"Hyderabad","circlename":"Andhra Pradesh","taluk":"Luxettipet","districtname":"Adilabad","statename":"TELANGANA","longitude":"NA","latitude":"NA"},{"pincode":"504216","divisionname":"Adilabad","regionname":"Hyderabad","circlename":"Andhra Pradesh","taluk":"Chennur","districtname":"Adilabad","statename":"TELANGANA","longitude":"NA","latitude":"NA"},{"pincode":"504215","divisionname":"Adilabad","regionname":"Hyderabad","circlename":"Andhra Pradesh","taluk":"Luxettipet","districtname":"Adilabad","statename":"TELANGANA","longitude":"NA","latitude":"NA"},{"pincode":"504293","divisionname":"Adilabad","regionname":"Hyderabad","circlename":"Andhra Pradesh","taluk":"Asifabad","districtname":"Adilabad","statename":"TELANGANA","longitude":"NA","latitude":"NA"},{"pincode":"504299","divisionname":"Adilabad","regionname":"Hyderabad","circlename":"Andhra Pradesh","taluk":"Sirpur (t)","districtname":"Adilabad","statename":"TELANGANA","longitude":"NA","latitude":"NA"},{"pincode":"504297","divisionname":"Adilabad","regionname":"Hyderabad","circlename":"Andhra Pradesh","taluk":"Asifabad","districtname":"Adilabad","statename":"TELANGANA","longitude":"NA","latitude":"NA"},{"pincode":"504299","divisionname":"Adilabad","regionname":"Hyderabad","circlename":"Andhra Pradesh","taluk":"Sirpur (t)","districtname":"Adilabad","statename":"TELANGANA","longitude":"NA","latitude":"NA"},{"pincode":"504296","divisionname":"Adilabad","regionname":"Hyderabad","circlename":"Andhra Pradesh","taluk":"Sirpur (t)","districtname":"Adilabad","statename":"TELANGANA","longitude":"NA","latitude":"NA"},{"pincode":"504293","divisionname":"Adilabad","regionname":"Hyderabad","circlename":"Andhra Pradesh","taluk":"Asifabad","districtname":"Adilabad","statename":"TELANGANA","longitude":"NA","latitude":"NA"},{"pincode":"504102","divisionname":"Adilabad","regionname":"Hyderabad","circlename":"Andhra Pradesh","taluk":"Mudhole","districtname":"Adilabad","statename":"TELANGANA","longitude":"NA","latitude":"NA"},{"pincode":"504306","divisionname":"Adilabad","regionname":"Hyderabad","circlename":"Andhra Pradesh","taluk":"Nirmal","districtname":"Adilabad","statename":"TELANGANA","longitude":"NA","latitude":"NA"},{"pincode":"504307","divisionname":"Adilabad","regionname":"Hyderabad","circlename":"Andhra Pradesh","taluk":"Boath","districtname":"Adilabad","statename":"TELANGANA","longitude":"NA","latitude":"NA"},{"pincode":"504209","divisionname":"Adilabad","regionname":"Hyderabad","circlename":"Andhra Pradesh","taluk":"Luxettipet","districtname":"Adilabad","statename":"TELANGANA","longitude":"NA","latitude":"NA"},{"pincode":"504214","divisionname":"Adilabad","regionname":"Hyderabad","circlename":"Andhra Pradesh","taluk":"Chennur","districtname":"Adilabad","statename":"TELANGANA","longitude":"NA","latitude":"NA"},{"pincode":"504205","divisionname":"Adilabad","regionname":"Hyderabad","circlename":"Andhra Pradesh","taluk":"Luxettipet","districtname":"Adilabad","statename":"TELANGANA","longitude":"NA","latitude":"NA"},{"pincode":"504202","divisionname":"Adilabad","regionname":"Hyderabad","circlename":"Andhra Pradesh","taluk":"Khanapur","districtname":"Adilabad","statename":"TELANGANA","longitude":"NA","latitude":"NA"},{"pincode":"504299","divisionname":"Adilabad","regionname":"Hyderabad","circlename":"Andhra Pradesh","taluk":"Sirpur (t)","districtname":"Adilabad","statename":"TELANGANA","longitude":"NA","latitude":"NA"},{"pincode":"504346","divisionname":"Adilabad","regionname":"Hyderabad","circlename":"Andhra Pradesh","taluk":"Utnoor","districtname":"Adilabad","statename":"TELANGANA","longitude":"NA","latitude":"NA"},{"pincode":"504308","divisionname":"Adilabad","regionname":"Hyderabad","circlename":"Andhra Pradesh","taluk":"Boath","districtname":"Adilabad","statename":"TELANGANA","longitude":"NA","latitude":"NA"},{"pincode":"504299","divisionname":"Adilabad","regionname":"Hyderabad","circlename":"Andhra Pradesh","taluk":"Sirpur (t)","districtname":"Adilabad","statename":"TELANGANA","longitude":"NA","latitude":"NA"},{"pincode":"504219","divisionname":"Adilabad","regionname":"Hyderabad","circlename":"Andhra Pradesh","taluk":"Luxettipet","districtname":"Adilabad","statename":"TELANGANA","longitude":"NA","latitude":"NA"},{"pincode":"504203","divisionname":"Adilabad","regionname":"Hyderabad","circlename":"Andhra Pradesh","taluk":"NA","districtname":"Adilabad","statename":"TELANGANA","longitude":"NA","latitude":"NA"},{"pincode":"504311","divisionname":"Adilabad","regionname":"Hyderabad","circlename":"Andhra Pradesh","taluk":"Utnoor","districtname":"Adilabad","statename":"TELANGANA","longitude":"NA","latitude":"NA"},{"pincode":"504311","divisionname":"Adilabad","regionname":"Hyderabad","circlename":"Andhra Pradesh","taluk":"Utnoor","districtname":"Adilabad","statename":"TELANGANA","longitude":"NA","latitude":"NA"},{"pincode":"504201","divisionname":"Adilabad","regionname":"Hyderabad","circlename":"Andhra Pradesh","taluk":"Chennur","districtname":"Adilabad","statename":"TELANGANA","longitude":"NA","latitude":"NA"},{"pincode":"504214","divisionname":"Adilabad","regionname":"Hyderabad","circlename":"Andhra Pradesh","taluk":"Chennur","districtname":"Adilabad","statename":"TELANGANA","longitude":"NA","latitude":"NA"},{"pincode":"504292","divisionname":"Adilabad","regionname":"Hyderabad","circlename":"Andhra Pradesh","taluk":"Asifabad","districtname":"Adilabad","statename":"TELANGANA","longitude":"NA","latitude":"NA"},{"pincode":"504207","divisionname":"Adilabad","regionname":"Hyderabad","circlename":"Andhra Pradesh","taluk":"Luxettipet","districtname":"Adilabad","statename":"TELANGANA","longitude":"NA","latitude":"NA"},{"pincode":"504214","divisionname":"Adilabad","regionname":"Hyderabad","circlename":"Andhra Pradesh","taluk":"Chennur","districtname":"Adilabad","statename":"TELANGANA","longitude":"NA","latitude":"NA"},{"pincode":"504292","divisionname":"Adilabad","regionname":"Hyderabad","circlename":"Andhra Pradesh","taluk":"Asifabad","districtname":"Adilabad","statename":"TELANGANA","longitude":"NA","latitude":"NA"},{"pincode":"504311","divisionname":"Adilabad","regionname":"Hyderabad","circlename":"Andhra Pradesh","taluk":"Utnoor","districtname":"Adilabad","statename":"TELANGANA","longitude":"NA","latitude":"NA"},{"pincode":"504307","divisionname":"Adilabad","regionname":"Hyderabad","circlename":"Andhra Pradesh","taluk":"Boath","districtname":"Adilabad","statename":"TELANGANA","longitude":"NA","latitude":"NA"},{"pincode":"504346","divisionname":"Adilabad","regionname":"Hyderabad","circlename":"Andhra Pradesh","taluk":"Utnoor","districtname":"Adilabad","statename":"TELANGANA","longitude":"NA","latitude":"NA"},{"pincode":"504104","divisionname":"Adilabad","regionname":"Hyderabad","circlename":"Andhra Pradesh","taluk":"Nirmal","districtname":"Adilabad","statename":"TELANGANA","longitude":"NA","latitude":"NA"},{"pincode":"504204","divisionname":"Adilabad","regionname":"Hyderabad","circlename":"Andhra Pradesh","taluk":"Chennur","districtname":"Adilabad","statename":"TELANGANA","longitude":"NA","latitude":"NA"},{"pincode":"504302","divisionname":"Adilabad","regionname":"Hyderabad","circlename":"Andhra Pradesh","taluk":"Mancherial","districtname":"Adilabad","statename":"TELANGANA","longitude":"NA","latitude":"NA"},{"pincode":"504106","divisionname":"Adilabad","regionname":"Hyderabad","circlename":"Andhra Pradesh","taluk":"Nirmal","districtname":"Adilabad","statename":"TELANGANA","longitude":"NA","latitude":"NA"},{"pincode":"504292","divisionname":"Adilabad","regionname":"Hyderabad","circlename":"Andhra Pradesh","taluk":"Asifabad","districtname":"Adilabad","statename":"TELANGANA","longitude":"NA","latitude":"NA"},{"pincode":"504214","divisionname":"Adilabad","regionname":"Hyderabad","circlename":"Andhra Pradesh","taluk":"Chennur","districtname":"Adilabad","statename":"TELANGANA","longitude":"NA","latitude":"NA"},{"pincode":"504219","divisionname":"Adilabad","regionname":"Hyderabad","circlename":"Andhra Pradesh","taluk":"Luxettipet","districtname":"Adilabad","statename":"TELANGANA","longitude":"NA","latitude":"NA"},{"pincode":"504323","divisionname":"Adilabad","regionname":"Hyderabad","circlename":"Andhra Pradesh","taluk":"Boath","districtname":"Adilabad","statename":"TELANGANA","longitude":"NA","latitude":"NA"},{"pincode":"504313","divisionname":"Adilabad","regionname":"Hyderabad","circlename":"Andhra Pradesh","taluk":"Utnoor","districtname":"Adilabad","statename":"TELANGANA","longitude":"NA","latitude":"NA"},{"pincode":"504104","divisionname":"Adilabad","regionname":"Hyderabad","circlename":"Andhra Pradesh","taluk":"Lokeswaram","districtname":"Adilabad","statename":"TELANGANA","longitude":"NA","latitude":"NA"},{"pincode":"504103","divisionname":"Adilabad","regionname":"Hyderabad","circlename":"Andhra Pradesh","taluk":"Mudhole","districtname":"Adilabad","statename":"TELANGANA","longitude":"NA","latitude":"NA"},{"pincode":"504309","divisionname":"Adilabad","regionname":"Hyderabad","circlename":"Andhra Pradesh","taluk":"Adilabad","districtname":"Adilabad","statename":"TELANGANA","longitude":"NA","latitude":"NA"},{"pincode":"504106","divisionname":"Adilabad","regionname":"Hyderabad","circlename":"Andhra Pradesh","taluk":"Nirmal","districtname":"Adilabad","statename":"TELANGANA","longitude":"NA","latitude":"NA"},{"pincode":"504109","divisionname":"Adilabad","regionname":"Hyderabad","circlename":"Andhra Pradesh","taluk":"Nirmal","districtname":"Adilabad","statename":"TELANGANA","longitude":"NA","latitude":"NA"},{"pincode":"504296","divisionname":"Adilabad","regionname":"Hyderabad","circlename":"Andhra Pradesh","taluk":"Kagaznagar","districtname":"Adilabad","statename":"TELANGANA","longitude":"NA","latitude":"NA"},{"pincode":"504311","divisionname":"Adilabad","regionname":"Hyderabad","circlename":"Andhra Pradesh","taluk":"Utnoor","districtname":"Adilabad","statename":"TELANGANA","longitude":"NA","latitude":"NA"},{"pincode":"504299","divisionname":"Adilabad","regionname":"Hyderabad","circlename":"Andhra Pradesh","taluk":"Sirpur (t)","districtname":"Adilabad","statename":"TELANGANA","longitude":"NA","latitude":"NA"},{"pincode":"504105","divisionname":"Adilabad","regionname":"Hyderabad","circlename":"Andhra Pradesh","taluk":"Nirmal","districtname":"Adilabad","statename":"TELANGANA","longitude":"NA","latitude":"NA"},{"pincode":"504308","divisionname":"Adilabad","regionname":"Hyderabad","circlename":"Andhra Pradesh","taluk":"Adilabad","districtname":"Adilabad","statename":"TELANGANA","longitude":"NA","latitude":"NA"},{"pincode":"504104","divisionname":"Adilabad","regionname":"Hyderabad","circlename":"Andhra Pradesh","taluk":"Nirmal","districtname":"Adilabad","statename":"TELANGANA","longitude":"NA","latitude":"NA"},{"pincode":"504313","divisionname":"Adilabad","regionname":"Hyderabad","circlename":"Andhra Pradesh","taluk":"Utnoor","districtname":"Adilabad","statename":"TELANGANA","longitude":"NA","latitude":"NA"},{"pincode":"504297","divisionname":"Adilabad","regionname":"Hyderabad","circlename":"Andhra Pradesh","taluk":"Asifabad","districtname":"Adilabad","statename":"TELANGANA","longitude":"NA","latitude":"NA"},{"pincode":"504299","divisionname":"Adilabad","regionname":"Hyderabad","circlename":"Andhra Pradesh","taluk":"Sirpur (t)","districtname":"Adilabad","statename":"TELANGANA","longitude":"NA","latitude":"NA"},{"pincode":"504103","divisionname":"Adilabad","regionname":"Hyderabad","circlename":"Andhra Pradesh","taluk":"Mudhole","districtname":"Adilabad","statename":"TELANGANA","longitude":"NA","latitude":"NA"},{"pincode":"504304","divisionname":"Adilabad","regionname":"Hyderabad","circlename":"Andhra Pradesh","taluk":"Boath","districtname":"Adilabad","statename":"TELANGANA","longitude":"NA","latitude":"NA"},{"pincode":"504299","divisionname":"Adilabad","regionname":"Hyderabad","circlename":"Andhra Pradesh","taluk":"Sirpur (t)","districtname":"Adilabad","statename":"TELANGANA","longitude":"NA","latitude":"NA"},{"pincode":"504310","divisionname":"Adilabad","regionname":"Hyderabad","circlename":"Andhra Pradesh","taluk":"Nirmal","districtname":"Adilabad","statename":"TELANGANA","longitude":"NA","latitude":"NA"},{"pincode":"504201","divisionname":"Adilabad","regionname":"Hyderabad","circlename":"Andhra Pradesh","taluk":"Chennur","districtname":"Adilabad","statename":"TELANGANA","longitude":"NA","latitude":"NA"},{"pincode":"504105","divisionname":"Adilabad","regionname":"Hyderabad","circlename":"Andhra Pradesh","taluk":"Nirmal","districtname":"Adilabad","statename":"TELANGANA","longitude":"NA","latitude":"NA"},{"pincode":"504208","divisionname":"Adilabad","regionname":"Hyderabad","circlename":"Andhra Pradesh","taluk":"Mancherial","districtname":"Adilabad","statename":"TELANGANA","longitude":"NA","latitude":"NA"},{"pincode":"504203","divisionname":"Adilabad","regionname":"Hyderabad","circlename":"Andhra Pradesh","taluk":"NA","districtname":"Adilabad","statename":"TELANGANA","longitude":"NA","latitude":"NA"},{"pincode":"504304","divisionname":"Adilabad","regionname":"Hyderabad","circlename":"Andhra Pradesh","taluk":"Boath","districtname":"Adilabad","statename":"TELANGANA","longitude":"NA","latitude":"NA"},{"pincode":"504311","divisionname":"Adilabad","regionname":"Hyderabad","circlename":"Andhra Pradesh","taluk":"Utnoor","districtname":"Adilabad","statename":"TELANGANA","longitude":"NA","latitude":"NA"},{"pincode":"504207","divisionname":"Adilabad","regionname":"Hyderabad","circlename":"Andhra Pradesh","taluk":"Luxettipet","districtname":"Adilabad","statename":"TELANGANA","longitude":"NA","latitude":"NA"},{"pincode":"504206","divisionname":"Adilabad","regionname":"Hyderabad","circlename":"Andhra Pradesh","taluk":"Luxettipet","districtname":"Adilabad","statename":"TELANGANA","longitude":"NA","latitude":"NA"},{"pincode":"504202","divisionname":"Adilabad","regionname":"Hyderabad","circlename":"Andhra Pradesh","taluk":"Khanapur","districtname":"Adilabad","statename":"TELANGANA","longitude":"NA","latitude":"NA"},{"pincode":"504105","divisionname":"Adilabad","regionname":"Hyderabad","circlename":"Andhra Pradesh","taluk":"Nirmal","districtname":"Adilabad","statename":"TELANGANA","longitude":"NA","latitude":"NA"},{"pincode":"504216","divisionname":"Adilabad","regionname":"Hyderabad","circlename":"Andhra Pradesh","taluk":"Chennur","districtname":"Adilabad","statename":"TELANGANA","longitude":"NA","latitude":"NA"},{"pincode":"504203","divisionname":"Adilabad","regionname":"Hyderabad","circlename":"Andhra Pradesh","taluk":"NA","districtname":"Adilabad","statename":"TELANGANA","longitude":"NA","latitude":"NA"},{"pincode":"504296","divisionname":"Adilabad","regionname":"Hyderabad","circlename":"Andhra Pradesh","taluk":"Sirpur (t)","districtname":"Adilabad","statename":"TELANGANA","longitude":"NA","latitude":"NA"},{"pincode":"504309","divisionname":"Adilabad","regionname":"Hyderabad","circlename":"Andhra Pradesh","taluk":"Adilabad","districtname":"Adilabad","statename":"TELANGANA","longitude":"NA","latitude":"NA"},{"pincode":"504109","divisionname":"Adilabad","regionname":"Hyderabad","circlename":"Andhra Pradesh","taluk":"Nirmal","districtname":"Adilabad","statename":"TELANGANA","longitude":"NA","latitude":"NA"},{"pincode":"504251","divisionname":"Adilabad","regionname":"Hyderabad","circlename":"Andhra Pradesh","taluk":"Luxettipet","districtname":"Adilabad","statename":"TELANGANA","longitude":"NA","latitude":"NA"},{"pincode":"504313","divisionname":"Adilabad","regionname":"Hyderabad","circlename":"Andhra Pradesh","taluk":"Utnoor","districtname":"Adilabad","statename":"TELANGANA","longitude":"NA","latitude":"NA"},{"pincode":"504002","divisionname":"Adilabad","regionname":"Hyderabad","circlename":"Andhra Pradesh","taluk":"Adilabad","districtname":"Adilabad","statename":"TELANGANA","longitude":"NA","latitude":"NA"},{"pincode":"504312","divisionname":"Adilabad","regionname":"Hyderabad","circlename":"Andhra Pradesh","taluk":"Adilabad","districtname":"Adilabad","statename":"TELANGANA","longitude":"NA","latitude":"NA"},{"pincode":"504346","divisionname":"Adilabad","regionname":"Hyderabad","circlename":"Andhra Pradesh","taluk":"Utnoor","districtname":"Adilabad","statename":"TELANGANA","longitude":"NA","latitude":"NA"},{"pincode":"504307","divisionname":"Adilabad","regionname":"Hyderabad","circlename":"Andhra Pradesh","taluk":"Bazarhathnoor","districtname":"Adilabad","statename":"TELANGANA","longitude":"NA","latitude":"NA"},{"pincode":"504304","divisionname":"Adilabad","regionname":"Hyderabad","circlename":"Andhra Pradesh","taluk":"Boath","districtname":"Adilabad","statename":"TELANGANA","longitude":"NA","latitude":"NA"},{"pincode":"504002","divisionname":"Adilabad","regionname":"Hyderabad","circlename":"Andhra Pradesh","taluk":"Adilabad","districtname":"Adilabad","statename":"TELANGANA","longitude":"NA","latitude":"NA"},{"pincode":"504201","divisionname":"Adilabad","regionname":"Hyderabad","circlename":"Andhra Pradesh","taluk":"Chennur","districtname":"Adilabad","statename":"TELANGANA","longitude":"NA","latitude":"NA"},{"pincode":"504251","divisionname":"Adilabad","regionname":"Hyderabad","circlename":"Andhra Pradesh","taluk":"Bellampalle","districtname":"Adilabad","statename":"TELANGANA","longitude":"NA","latitude":"NA"},{"pincode":"504310","divisionname":"Adilabad","regionname":"Hyderabad","circlename":"Andhra Pradesh","taluk":"Nirmal","districtname":"Adilabad","statename":"TELANGANA","longitude":"NA","latitude":"NA"},{"pincode":"504205","divisionname":"Adilabad","regionname":"Hyderabad","circlename":"Andhra Pradesh","taluk":"Luxettipet","districtname":"Adilabad","statename":"TELANGANA","longitude":"NA","latitude":"NA"},{"pincode":"504110","divisionname":"Adilabad","regionname":"Hyderabad","circlename":"Andhra Pradesh","taluk":"Nirmal","districtname":"Adilabad","statename":"TELANGANA","longitude":"NA","latitude":"NA"},{"pincode":"504216","divisionname":"Adilabad","regionname":"Hyderabad","circlename":"Andhra Pradesh","taluk":"Chennur","districtname":"Adilabad","statename":"TELANGANA","longitude":"NA","latitude":"NA"},{"pincode":"504002","divisionname":"Adilabad","regionname":"Hyderabad","circlename":"Andhra Pradesh","taluk":"Adilabad","districtname":"Adilabad","statename":"TELANGANA","longitude":"NA","latitude":"NA"},{"pincode":"504307","divisionname":"Adilabad","regionname":"Hyderabad","circlename":"Andhra Pradesh","taluk":"Boath","districtname":"Adilabad","statename":"TELANGANA","longitude":"NA","latitude":"NA"},{"pincode":"504216","divisionname":"Adilabad","regionname":"Hyderabad","circlename":"Andhra Pradesh","taluk":"Chennur","districtname":"Adilabad","statename":"TELANGANA","longitude":"NA","latitude":"NA"},{"pincode":"504346","divisionname":"Adilabad","regionname":"Hyderabad","circlename":"Andhra Pradesh","taluk":"Utnoor","districtname":"Adilabad","statename":"TELANGANA","longitude":"NA","latitude":"NA"},{"pincode":"504103","divisionname":"Adilabad","regionname":"Hyderabad","circlename":"Andhra Pradesh","taluk":"Kubeer","districtname":"Adilabad","statename":"TELANGANA","longitude":"NA","latitude":"NA"},{"pincode":"504102","divisionname":"Adilabad","regionname":"Hyderabad","circlename":"Andhra Pradesh","taluk":"Mudhole","districtname":"Adilabad","statename":"TELANGANA","longitude":"NA","latitude":"NA"},{"pincode":"504205","divisionname":"Adilabad","regionname":"Hyderabad","circlename":"Andhra Pradesh","taluk":"Luxettipet","districtname":"Adilabad","statename":"TELANGANA","longitude":"NA","latitude":"NA"},{"pincode":"504207","divisionname":"Adilabad","regionname":"Hyderabad","circlename":"Andhra Pradesh","taluk":"Mancherial","districtname":"Adilabad","statename":"TELANGANA","longitude":"NA","latitude":"NA"}]}}