{"State":{"Andhra Pradesh":[{"pincode":"506371","divisionname":"Hanamkonda","regionname":"Hyderabad","circlename":"Andhra Pradesh","taluk":"Hasanparthy","districtname":"Warangal","statename":"TELANGANA","longitude":"NA","latitude":"NA"},{"pincode":"506352","divisionname":"Hanamkonda","regionname":"Hyderabad","circlename":"Andhra Pradesh","taluk":"Mulug","districtname":"Warangal","statename":"TELANGANA","longitude":"NA","latitude":"NA"},{"pincode":"506367","divisionname":"Hanamkonda","regionname":"Hyderabad","circlename":"Andhra Pradesh","taluk":"Narmetta","districtname":"Warangal","statename":"TELANGANA","longitude":"NA","latitude":"NA"},{"pincode":"506303","divisionname":"Hanamkonda","regionname":"Hyderabad","circlename":"Andhra Pradesh","taluk":"Devaruppula","districtname":"Warangal","statename":"TELANGANA","longitude":"NA","latitude":"NA"},{"pincode":"506223","divisionname":"Hanamkonda","regionname":"Hyderabad","circlename":"Andhra Pradesh","taluk":"Maddur","districtname":"Warangal","statename":"TELANGANA","longitude":"NA","latitude":"NA"},{"pincode":"506244","divisionname":"Hanamkonda","regionname":"Hyderabad","circlename":"Andhra Pradesh","taluk":"Raghunathapalli","districtname":"Warangal","statename":"TELANGANA","longitude":"NA","latitude":"NA"},{"pincode":"506342","divisionname":"Hanamkonda","regionname":"Hyderabad","circlename":"Andhra Pradesh","taluk":"Atmakur","districtname":"Warangal","statename":"TELANGANA","longitude":"NA","latitude":"NA"},{"pincode":"506169","divisionname":"Hanamkonda","regionname":"Hyderabad","circlename":"Andhra Pradesh","taluk":"Bhupalapalli","districtname":"Warangal","statename":"TELANGANA","longitude":"NA","latitude":"NA"},{"pincode":"506224","divisionname":"Hanamkonda","regionname":"Hyderabad","circlename":"Andhra Pradesh","taluk":"Buchannapet","districtname":"Warangal","statename":"TELANGANA","longitude":"NA","latitude":"NA"},{"pincode":"506343","divisionname":"Hanamkonda","regionname":"Hyderabad","circlename":"Andhra Pradesh","taluk":"Mulug","districtname":"Warangal","statename":"TELANGANA","longitude":"NA","latitude":"NA"}]}}