{"State":{"Andhra Pradesh":[{"pincode":"504104","divisionname":"Adilabad","regionname":"Hyderabad","circlename":"Andhra Pradesh","taluk":"Nirmal","districtname":"Adilabad","statename":"TELANGANA","longitude":"NA","latitude":"NA"},{"pincode":"504310","divisionname":"Adilabad","regionname":"Hyderabad","circlename":"Andhra Pradesh","taluk":"Nirmal","districtname":"Adilabad","statename":"TELANGANA","longitude":"NA","latitude":"NA"},{"pincode":"504104","divisionname":"Adilabad","regionname":"Hyderabad","circlename":"Andhra Pradesh","taluk":"Nirmal","districtname":"Adilabad","statename":"TELANGANA","longitude":"NA","latitude":"NA"},{"pincode":"504002","divisionname":"Adilabad","regionname":"Hyderabad","circlename":"Andhra Pradesh","taluk":"Adilabad","districtname":"Adilabad","statename":"TELANGANA","longitude":"NA","latitude":"NA"},{"pincode":"504301","divisionname":"Adilabad","regionname":"Hyderabad","circlename":"Andhra Pradesh","taluk":"Mandamarri","districtname":"Adilabad","statename":"TELANGANA","longitude":"NA","latitude":"NA"},{"pincode":"504306","divisionname":"Adilabad","regionname":"Hyderabad","circlename":"Andhra Pradesh","taluk":"Nirmal","districtname":"Adilabad","statename":"TELANGANA","longitude":"NA","latitude":"NA"},{"pincode":"504307","divisionname":"Adilabad","regionname":"Hyderabad","circlename":"Andhra Pradesh","taluk":"Boath","districtname":"Adilabad","statename":"TELANGANA","longitude":"NA","latitude":"NA"},{"pincode":"504313","divisionname":"Adilabad","regionname":"Hyderabad","circlename":"Andhra Pradesh","taluk":"Utnoor","districtname":"Adilabad","statename":"TELANGANA","longitude":"NA","latitude":"NA"},{"pincode":"504296","divisionname":"Adilabad","regionname":"Hyderabad","circlename":"Andhra Pradesh","taluk":"Sirpur (t)","districtname":"Adilabad","statename":"TELANGANA","longitude":"NA","latitude":"NA"},{"pincode":"504106","divisionname":"Adilabad","regionname":"Hyderabad","circlename":"Andhra Pradesh","taluk":"Nirmal","districtname":"Adilabad","statename":"TELANGANA","longitude":"NA","latitude":"NA"}]}}