{"State":{"Andhra Pradesh":[{"pincode":"504215","divisionname":"Adilabad","regionname":"Hyderabad","circlename":"Andhra Pradesh","taluk":"Luxettipet","districtname":"Adilabad","statename":"TELANGANA","longitude":"NA","latitude":"NA"},{"pincode":"504219","divisionname":"Adilabad","regionname":"Hyderabad","circlename":"Andhra Pradesh","taluk":"Luxettipet","districtname":"Adilabad","statename":"TELANGANA","longitude":"NA","latitude":"NA"},{"pincode":"504299","divisionname":"Adilabad","regionname":"Hyderabad","circlename":"Andhra Pradesh","taluk":"Sirpur (t)","districtname":"Adilabad","statename":"TELANGANA","longitude":"NA","latitude":"NA"},{"pincode":"504292","divisionname":"Adilabad","regionname":"Hyderabad","circlename":"Andhra Pradesh","taluk":"Sirpur (t)","districtname":"Adilabad","statename":"TELANGANA","longitude":"NA","latitude":"NA"},{"pincode":"504273","divisionname":"Adilabad","regionname":"Hyderabad","circlename":"Andhra Pradesh","taluk":"Sirpur (t)","districtname":"Adilabad","statename":"TELANGANA","longitude":"NA","latitude":"NA"},{"pincode":"504272","divisionname":"Adilabad","regionname":"Hyderabad","circlename":"Andhra Pradesh","taluk":"Asifabad","districtname":"Adilabad","statename":"TELANGANA","longitude":"NA","latitude":"NA"},{"pincode":"504202","divisionname":"Adilabad","regionname":"Hyderabad","circlename":"Andhra Pradesh","taluk":"Khanapur","districtname":"Adilabad","statename":"TELANGANA","longitude":"NA","latitude":"NA"},{"pincode":"504107","divisionname":"Adilabad","regionname":"Hyderabad","circlename":"Andhra Pradesh","taluk":"Mudhole","districtname":"Adilabad","statename":"TELANGANA","longitude":"NA","latitude":"NA"},{"pincode":"504297","divisionname":"Adilabad","regionname":"Hyderabad","circlename":"Andhra Pradesh","taluk":"Asifabad","districtname":"Adilabad","statename":"TELANGANA","longitude":"NA","latitude":"NA"},{"pincode":"504296","divisionname":"Adilabad","regionname":"Hyderabad","circlename":"Andhra Pradesh","taluk":"Kagaznagar","districtname":"Adilabad","statename":"TELANGANA","longitude":"NA","latitude":"NA"}]}}