{"State":{"Andhra Pradesh":[{"pincode":"506145","divisionname":"Hanamkonda","regionname":"Hyderabad","circlename":"Andhra Pradesh","taluk":"Narmitta","districtname":"Warangal","statename":"TELANGANA","longitude":"NA","latitude":"NA"},{"pincode":"506169","divisionname":"Hanamkonda","regionname":"Hyderabad","circlename":"Andhra Pradesh","taluk":"Bhupalapalli","districtname":"Warangal","statename":"TELANGANA","longitude":"NA","latitude":"NA"},{"pincode":"506355","divisionname":"Hanamkonda","regionname":"Hyderabad","circlename":"Andhra Pradesh","taluk":"Cherial","districtname":"Warangal","statename":"TELANGANA","longitude":"NA","latitude":"NA"},{"pincode":"506366","divisionname":"Hanamkonda","regionname":"Hyderabad","circlename":"Andhra Pradesh","taluk":"Mogullapalli","districtname":"Warangal","statename":"TELANGANA","longitude":"NA","latitude":"NA"},{"pincode":"506172","divisionname":"Hanamkonda","regionname":"Hyderabad","circlename":"Andhra Pradesh","taluk":"Mangapet","districtname":"Warangal","statename":"TELANGANA","longitude":"NA","latitude":"NA"},{"pincode":"506342","divisionname":"Hanamkonda","regionname":"Hyderabad","circlename":"Andhra Pradesh","taluk":"Atmakur","districtname":"Warangal","statename":"TELANGANA","longitude":"NA","latitude":"NA"},{"pincode":"506224","divisionname":"Hanamkonda","regionname":"Hyderabad","circlename":"Andhra Pradesh","taluk":"Narmetta","districtname":"Warangal","statename":"TELANGANA","longitude":"NA","latitude":"NA"},{"pincode":"506223","divisionname":"Hanamkonda","regionname":"Hyderabad","circlename":"Andhra Pradesh","taluk":"Cherial","districtname":"Warangal","statename":"TELANGANA","longitude":"NA","latitude":"NA"},{"pincode":"506221","divisionname":"Hanamkonda","regionname":"Hyderabad","circlename":"Andhra Pradesh","taluk":"Buchannapet","districtname":"Warangal","statename":"TELANGANA","longitude":"NA","latitude":"NA"},{"pincode":"506224","divisionname":"Hanamkonda","regionname":"Hyderabad","circlename":"Andhra Pradesh","taluk":"Narmetta","districtname":"Warangal","statename":"TELANGANA","longitude":"NA","latitude":"NA"}]}}