{"State":{"Andhra Pradesh":[{"pincode":"506244","divisionname":"Hanamkonda","regionname":"Hyderabad","circlename":"Andhra Pradesh","taluk":"Raghunathpalli","districtname":"Warangal","statename":"TELANGANA","longitude":"NA","latitude":"NA"},{"pincode":"506003","divisionname":"Hanamkonda","regionname":"Hyderabad","circlename":"Andhra Pradesh","taluk":"Hanamkonda","districtname":"Warangal","statename":"TELANGANA","longitude":"NA","latitude":"NA"},{"pincode":"506344","divisionname":"Hanamkonda","regionname":"Hyderabad","circlename":"Andhra Pradesh","taluk":"Tadvai","districtname":"Warangal","statename":"TELANGANA","longitude":"NA","latitude":"NA"},{"pincode":"506345","divisionname":"Hanamkonda","regionname":"Hyderabad","circlename":"Andhra Pradesh","taluk":"Regonda","districtname":"Warangal","statename":"TELANGANA","longitude":"NA","latitude":"NA"},{"pincode":"506367","divisionname":"Hanamkonda","regionname":"Hyderabad","circlename":"Andhra Pradesh","taluk":"Maddur","districtname":"Warangal","statename":"TELANGANA","longitude":"NA","latitude":"NA"},{"pincode":"506003","divisionname":"Hanamkonda","regionname":"Hyderabad","circlename":"Andhra Pradesh","taluk":"NA","districtname":"Warangal","statename":"TELANGANA","longitude":"NA","latitude":"NA"},{"pincode":"506015","divisionname":"Hanamkonda","regionname":"Hyderabad","circlename":"Andhra Pradesh","taluk":"Hasanparthy","districtname":"Warangal","statename":"TELANGANA","longitude":"NA","latitude":"NA"},{"pincode":"506169","divisionname":"Hanamkonda","regionname":"Hyderabad","circlename":"Andhra Pradesh","taluk":"Bhupalapalli","districtname":"Warangal","statename":"TELANGANA","longitude":"NA","latitude":"NA"},{"pincode":"506367","divisionname":"Hanamkonda","regionname":"Hyderabad","circlename":"Andhra Pradesh","taluk":"Maddur","districtname":"Warangal","statename":"TELANGANA","longitude":"NA","latitude":"NA"},{"pincode":"506347","divisionname":"Hanamkonda","regionname":"Hyderabad","circlename":"Andhra Pradesh","taluk":"Tadvai","districtname":"Warangal","statename":"TELANGANA","longitude":"NA","latitude":"NA"}]}}