{"State":{"Andhra Pradesh":[{"pincode":"504216","divisionname":"Adilabad","regionname":"Hyderabad","circlename":"Andhra Pradesh","taluk":"Chennur","districtname":"Adilabad","statename":"TELANGANA","longitude":"NA","latitude":"NA"},{"pincode":"504002","divisionname":"Adilabad","regionname":"Hyderabad","circlename":"Andhra Pradesh","taluk":"Adilabad","districtname":"Adilabad","statename":"TELANGANA","longitude":"NA","latitude":"NA"},{"pincode":"504102","divisionname":"Adilabad","regionname":"Hyderabad","circlename":"Andhra Pradesh","taluk":"Mudhole","districtname":"Adilabad","statename":"TELANGANA","longitude":"NA","latitude":"NA"},{"pincode":"504106","divisionname":"Adilabad","regionname":"Hyderabad","circlename":"Andhra Pradesh","taluk":"Nirmal","districtname":"Adilabad","statename":"TELANGANA","longitude":"NA","latitude":"NA"},{"pincode":"504293","divisionname":"Adilabad","regionname":"Hyderabad","circlename":"Andhra Pradesh","taluk":"Asifabad","districtname":"Adilabad","statename":"TELANGANA","longitude":"NA","latitude":"NA"},{"pincode":"504101","divisionname":"Adilabad","regionname":"Hyderabad","circlename":"Andhra Pradesh","taluk":"Mudhole","districtname":"Adilabad","statename":"TELANGANA","longitude":"NA","latitude":"NA"},{"pincode":"504105","divisionname":"Adilabad","regionname":"Hyderabad","circlename":"Andhra Pradesh","taluk":"Nirmal","districtname":"Adilabad","statename":"TELANGANA","longitude":"NA","latitude":"NA"},{"pincode":"504346","divisionname":"Adilabad","regionname":"Hyderabad","circlename":"Andhra Pradesh","taluk":"Utnoor","districtname":"Adilabad","statename":"TELANGANA","longitude":"NA","latitude":"NA"},{"pincode":"506144","divisionname":"Hanamkonda","regionname":"Hyderabad","circlename":"Andhra Pradesh","taluk":"Jangaon","districtname":"Warangal","statename":"TELANGANA","longitude":"NA","latitude":"NA"},{"pincode":"506343","divisionname":"Hanamkonda","regionname":"Hyderabad","circlename":"Andhra Pradesh","taluk":"Mulug","districtname":"Warangal","statename":"TELANGANA","longitude":"NA","latitude":"NA"}]}}