{"State":{"Andhra Pradesh":[{"pincode":"504323","divisionname":"Adilabad","regionname":"Hyderabad","circlename":"Andhra Pradesh","taluk":"Boath","districtname":"Adilabad","statename":"TELANGANA","longitude":"NA","latitude":"NA"},{"pincode":"504216","divisionname":"Adilabad","regionname":"Hyderabad","circlename":"Andhra Pradesh","taluk":"Chennur","districtname":"Adilabad","statename":"TELANGANA","longitude":"NA","latitude":"NA"},{"pincode":"504307","divisionname":"Adilabad","regionname":"Hyderabad","circlename":"Andhra Pradesh","taluk":"Boath","districtname":"Adilabad","statename":"TELANGANA","longitude":"NA","latitude":"NA"},{"pincode":"504109","divisionname":"Adilabad","regionname":"Hyderabad","circlename":"Andhra Pradesh","taluk":"Nirmal","districtname":"Adilabad","statename":"TELANGANA","longitude":"NA","latitude":"NA"},{"pincode":"504209","divisionname":"Adilabad","regionname":"Hyderabad","circlename":"Andhra Pradesh","taluk":"Luxettipet","districtname":"Adilabad","statename":"TELANGANA","longitude":"NA","latitude":"NA"},{"pincode":"504297","divisionname":"Adilabad","regionname":"Hyderabad","circlename":"Andhra Pradesh","taluk":"Tiryani","districtname":"Adilabad","statename":"TELANGANA","longitude":"NA","latitude":"NA"},{"pincode":"504308","divisionname":"Adilabad","regionname":"Hyderabad","circlename":"Andhra Pradesh","taluk":"Utnoor","districtname":"Adilabad","statename":"TELANGANA","longitude":"NA","latitude":"NA"},{"pincode":"504002","divisionname":"Adilabad","regionname":"Hyderabad","circlename":"Andhra Pradesh","taluk":"Bela","districtname":"Adilabad","statename":"TELANGANA","longitude":"NA","latitude":"NA"},{"pincode":"504294","divisionname":"Adilabad","regionname":"Hyderabad","circlename":"Andhra Pradesh","taluk":"Asifabad","districtname":"Adilabad","statename":"TELANGANA","longitude":"NA","latitude":"NA"},{"pincode":"504296","divisionname":"Adilabad","regionname":"Hyderabad","circlename":"Andhra Pradesh","taluk":"Sirpur (t)","districtname":"Adilabad","statename":"TELANGANA","longitude":"NA","latitude":"NA"}]}}